adsh,cik,name,sic,countryba,stprba,cityba,zipba,bas1,bas2,baph,countryma,stprma,cityma,zipma,mas1,mas2,countryinc,stprinc,ein,former,changed,afs,wksi,fye,form,period,fy,fp,filed,accepted,prevrpt,detail,instance,nciks,aciks
0000950170-24-080431,1785056,"INTERACTIVE STRENGTH, INC.",3600,US,TX,AUSTIN,78701,1005 CONGRESS AVENUE,SUITE 925,3106978655,US,TX,AUSTIN,78701,1005 CONGRESS AVENUE,SUITE 925,US,DE,821432916,,,4-NON,0,1231,8-K,20240630,,,20240702,2024-07-02 16:03:00,0,0,trnr-20240701_htm.xml,1,
0000950170-24-080400,1785056,"INTERACTIVE STRENGTH, INC.",3600,US,TX,AUSTIN,78701,1005 CONGRESS AVENUE,SUITE 925,3106978655,US,TX,AUSTIN,78701,1005 CONGRESS AVENUE,SUITE 925,US,DE,821432916,,,4-NON,0,1231,8-K,20240630,,,20240702,2024-07-02 16:00:00,0,0,trnr-20240628_htm.xml,1,
0000950170-24-080040,926617,ASPIRA WOMEN'S HEALTH INC.,2835,US,TX,AUSTIN,78738,12117 BEE CAVES ROAD BUILDING THREE,SUITE 100,512-519-0400,US,TX,AUSTIN,78738,12117 BEE CAVES ROAD BUILDING THREE,SUITE 100,US,DE,330595156,"VERMILLION, INC.",20070824,4-NON,0,1231,8-K,20240630,,,20240702,2024-07-02 9:16:00,0,0,awh-20240630_htm.xml,1,
0001493152-24-025806,1836100,GOAL ACQUISITIONS CORP.,6770,US,TX,AUSTIN,78738,13001 W. HWY 71,SUITE 201,512-287-1871,US,TX,AUSTIN,78738,13001 W. HWY 71,SUITE 201,US,DE,853660880,,,4-NON,0,1231,8-K,20240630,,,20240701,2024-07-01 16:31:00,0,0,form8-k_htm.xml,1,
0001493152-24-025725,1069530,CASSAVA SCIENCES INC,2834,US,TX,AUSTIN,78731,6801 N CAPITAL OF TEXAS HIGHWAY,BUILDING 1; SUITE 300,512-501-2444,US,TX,AUSTIN,78731,6801 N CAPITAL OF TEXAS HIGHWAY,BUILDING 1; SUITE 300,US,DE,911911336,PAIN THERAPEUTICS INC,20000309,1-LAF,0,1231,8-K,20240630,,,20240701,2024-07-01 8:01:00,1,0,form8-k_htm.xml,1,
0001213900-24-057380,1733413,"TFF PHARMACEUTICALS, INC.",2834,US,TX,AUSTIN,78746,"2600 VIA FORTUNA, SUITE 360",,737-802-1973,US,TX,AUSTIN,78746,"2600 VIA FORTUNA, SUITE 360",,US,DE,824344737,,,4-NON,0,1231,8-K,20240630,,,20240701,2024-06-28 20:32:00,0,0,ea0208732-8k_tffpharma_htm.xml,1,
0001079973-24-000998,700764,"VICTORY CLEAN ENERGY, INC.",1311,US,TX,AUSTIN,78738,"14425 FALCON HEAD BLVD., BLDG E",SUITE 100,512-607-5558,US,TX,AUSTIN,78738,"14425 FALCON HEAD BLVD., BLDG E",SUITE 100,US,NV,870564472,"VICTORY OILFIELD TECH, INC.",20180606,4-NON,0,1231,8-K,20240630,,,20240701,2024-07-01 17:15:00,0,0,vyey_8k_htm.xml,1,
0000950170-24-079726,1830043,BUMBLE INC.,7370,US,TX,AUSTIN,78756,1105 WEST 41ST STREET,,512-696-1409,US,TX,AUSTIN,78756,1105 WEST 41ST STREET,,,,853604367,,,1-LAF,0,1231,8-K,20240630,,,20240701,2024-07-01 17:00:00,0,0,bmbl-20240701_htm.xml,1,
0000950170-24-079657,1800347,"E2OPEN PARENT HOLDINGS, INC.",7374,US,TX,AUSTIN,78759,"9600 GREAT HILLS TRAIL, SUITE 300E",,8664326736,US,TX,AUSTIN,78759,"9600 GREAT HILLS TRAIL, SUITE 300E",,US,DE,0,CC NEUBERGER PRINCIPAL HOLDINGS I,20200116,1-LAF,0,229,8-K,20240630,,,20240701,2024-07-01 16:30:00,0,0,etwo-20240628_htm.xml,1,
0001377789-24-000028,1377789,"AVIAT NETWORKS, INC.",3663,US,TX,AUSTIN,78728,200 PARKER DRIVE,SUITE C100A,4089417100,US,TX,AUSTIN,78728,200 PARKER DRIVE,SUITE C100A,US,DE,205961564,AVIAT NETWORKS INC,20161109,2-ACC,0,630,8-K,20240630,,,20240703,2024-07-03 6:06:00,0,0,avnw-20240702_htm.xml,1,
0001635984-24-000017,1635984,"NATIONAL WESTERN LIFE GROUP, INC.",6311,US,TX,AUSTIN,78720-9080,C/O NATIONAL WESTERN LIFE INSURANCE CO.,PO BOX 209080,(512) 719-0143,US,TX,AUSTIN,78720-9080,C/O NATIONAL WESTERN LIFE INSURANCE CO.,PO BOX 209080,US,DE,0,,,1-LAF,0,1231,8-K,20240630,,,20240703,2024-07-03 12:04:00,0,0,nwli-20240703_htm.xml,1,
0000772406-24-000047,772406,"CIRRUS LOGIC, INC.",3674,US,TX,AUSTIN,78701,800 WEST 6TH STREET,,512-851-4000,US,TX,AUSTIN,78701,800 WEST 6TH STREET,,US,DE,770024818,CIRRUS LOGIC INC,19920703,1-LAF,0,331,8-K/A,20240430,,,20240705,2024-07-05 16:03:00,0,0,crus-20240511_htm.xml,1,
0000950170-24-081880,926617,ASPIRA WOMEN'S HEALTH INC.,2835,US,TX,AUSTIN,78738,12117 BEE CAVES ROAD BUILDING THREE,SUITE 100,512-519-0400,US,TX,AUSTIN,78738,12117 BEE CAVES ROAD BUILDING THREE,SUITE 100,US,DE,330595156,"VERMILLION, INC.",20070824,4-NON,0,1231,8-K,20240630,,,20240705,2024-07-05 16:30:00,0,0,awh-20240701_htm.xml,1,
0001628280-24-031246,1839341,"CORE SCIENTIFIC, INC./TX",6199,US,TX,AUSTIN,78701,"106 EAST 6TH STREET, SUITE 900-145",,(425) 998-5300,US,TX,AUSTIN,78701,"106 EAST 6TH STREET, SUITE 900-145",,US,DE,0,POWER & DIGITAL INFRASTRUCTURE ACQUISITION CORP.,20210106,2-ACC,0,1231,8-K,20240630,,,20240705,2024-07-05 11:00:00,0,0,core-20240705_htm.xml,1,
0001828852-24-000102,1828852,"MONDEE HOLDINGS, INC.",4700,US,TX,AUSTIN,78750,"10800 PECAN PARK BLVD, SUITE 315",,(650) 646-3320,US,TX,AUSTIN,78750,"10800 PECAN PARK BLVD, SUITE 315",,US,DE,0,ITHAX ACQUISITION CORP.,20201019,2-ACC,0,1231,8-K,20240630,,,20240705,2024-07-05 16:00:00,0,0,mond-20240628_htm.xml,1,
0000024090-24-000127,24090,"CITIZENS, INC.",6311,US,TX,AUSTIN,78758,11815 ALTERRA PKWY,SUITE 1500,5128377100,US,TX,AUSTIN,78714,P O BOX 149151,,US,CO,840755371,CITIZENS INC,19920703,2-ACC,0,1231,8-K,20240630,,,20240708,2024-07-08 11:29:00,0,0,cia-20240701_htm.xml,1,
0001628280-24-031339,1839341,"CORE SCIENTIFIC, INC./TX",6199,US,TX,AUSTIN,78701,"106 EAST 6TH STREET, SUITE 900-145",,(425) 998-5300,US,TX,AUSTIN,78701,"106 EAST 6TH STREET, SUITE 900-145",,US,DE,0,POWER & DIGITAL INFRASTRUCTURE ACQUISITION CORP.,20210106,2-ACC,0,1231,8-K,20240630,,,20240708,2024-07-08 9:14:00,0,0,core-20240708_htm.xml,1,
0001635984-24-000019,1635984,"NATIONAL WESTERN LIFE GROUP, INC.",6311,US,TX,AUSTIN,78720-9080,C/O NATIONAL WESTERN LIFE INSURANCE CO.,PO BOX 209080,(512) 719-0143,US,TX,AUSTIN,78720-9080,C/O NATIONAL WESTERN LIFE INSURANCE CO.,PO BOX 209080,US,DE,0,,,1-LAF,0,1231,8-K,20240630,,,20240709,2024-07-09 9:45:00,0,0,nwli-20240709_htm.xml,1,
0000950170-24-082694,1800347,"E2OPEN PARENT HOLDINGS, INC.",7374,US,TX,AUSTIN,78759,"9600 GREAT HILLS TRAIL, SUITE 300E",,8664326736,US,TX,AUSTIN,78759,"9600 GREAT HILLS TRAIL, SUITE 300E",,US,DE,0,CC NEUBERGER PRINCIPAL HOLDINGS I,20200116,1-LAF,0,229,8-K,20240630,,,20240710,2024-07-10 16:18:00,0,0,etwo-20240710_htm.xml,1,
0000950170-24-082697,1800347,"E2OPEN PARENT HOLDINGS, INC.",7374,US,TX,AUSTIN,78759,"9600 GREAT HILLS TRAIL, SUITE 300E",,8664326736,US,TX,AUSTIN,78759,"9600 GREAT HILLS TRAIL, SUITE 300E",,US,DE,0,CC NEUBERGER PRINCIPAL HOLDINGS I,20200116,1-LAF,0,229,10-Q,20240531,2025,Q1,20240710,2024-07-10 16:22:00,0,1,etwo-20240531_htm.xml,1,
0000950170-24-082745,1785056,"INTERACTIVE STRENGTH, INC.",3600,US,TX,AUSTIN,78701,1005 CONGRESS AVENUE,SUITE 925,3106978655,US,TX,AUSTIN,78701,1005 CONGRESS AVENUE,SUITE 925,US,DE,821432916,,,4-NON,0,1231,8-K,20240630,,,20240710,2024-07-10 16:57:00,0,0,trnr-20240703_htm.xml,1,
0001193125-24-177288,1740332,"RESIDEO TECHNOLOGIES, INC.",5072,US,TX,AUSTIN,78702,901 E 6TH STREET,,512-726-3500,US,TX,AUSTIN,78702,901 E 6TH STREET,,US,DE,825318796,HH SPINCO INC.,20180510,1-LAF,0,1231,8-K,20240630,,,20240710,2024-07-10 16:42:00,0,0,d781419d8k_htm.xml,1,
0001625641-24-000103,1625641,"CS DISCO, INC.",7372,US,TX,AUSTIN,78701,111 CONGRESS AVE,SUITE 900,713-231-9100,US,TX,AUSTIN,78701,111 CONGRESS AVE,SUITE 900,US,DE,464254444,,,2-ACC,0,1231,8-K,20240630,,,20240710,2024-07-10 16:31:00,0,0,law-20240709_htm.xml,1,
0001213900-24-061043,1914023,ACRI CAPITAL ACQUISITION CORP,6770,US,TX,AUSTIN,78729,13284 POND SPRING RD,STE 405,5126661277,US,TX,AUSTIN,78729,13284 POND SPRING RD,STE 405,US,DE,874328187,,,4-NON,0,1231,8-K,20240630,,,20240712,2024-07-12 16:16:00,0,0,ea0209351-8k_acricap_htm.xml,1,
0001628280-24-031727,1839341,"CORE SCIENTIFIC, INC./TX",6199,US,TX,AUSTIN,78701,"106 EAST 6TH STREET, SUITE 900-145",,(425) 998-5300,US,TX,AUSTIN,78701,"106 EAST 6TH STREET, SUITE 900-145",,US,DE,0,POWER & DIGITAL INFRASTRUCTURE ACQUISITION CORP.,20210106,2-ACC,0,1231,8-K,20240630,,,20240712,2024-07-12 9:14:00,0,0,core-20240712_htm.xml,1,
0001493152-24-027787,1657045,NEXT-CHEMX CORPORATION.,2890,US,TX,AUSTIN,78746,901 MOPAC EXPRESSWAY SOUTH BUILDING 1,SUITE 300,512-663-2690,US,TX,AUSTIN,78746,901 MOPAC EXPRESSWAY SOUTH BUILDING 1,SUITE 300,US,NV,320446353,"ALLYME GROUP, INC./NV",20181227,4-NON,0,1231,10-Q,20240331,2024,Q1,20240715,2024-07-15 13:12:00,0,1,form10-q_htm.xml,1,
0001493152-24-027892,1572565,INDOOR HARVEST CORP,3590,US,TX,AUSTIN,78739,7401 W. SLAUGHTER LANE #5078,,(346) 310-3427,US,TX,AUSTIN,78739,7401 W. SLAUGHTER LANE #5078,,US,TX,455577364,,,4-NON,0,1231,10-K/A,20231231,2023,FY,20240715,2024-07-15 17:22:00,1,1,form10-ka_htm.xml,1,
0001628280-24-031881,1038074,SILICON LABORATORIES INC.,3674,US,TX,AUSTIN,78701,400 W CESAR CHAVEZ,,5124168500,US,TX,AUSTIN,78701,400 W CESAR CHAVEZ,,US,DE,742793174,SILICON LABORATORIES INC,20000105,1-LAF,0,1231,8-K,20240630,,,20240715,2024-07-15 16:16:00,0,0,slab-20240709_htm.xml,1,
0001628280-24-031898,317788,"DIGITAL TURBINE, INC.",6794,US,TX,AUSTIN,78701,111 NUECES STREET,,(512) 387-7717,US,TX,AUSTIN,78701,111 NUECES STREET,,US,DE,222267658,"MANDALAY DIGITAL GROUP, INC.",20120207,1-LAF,0,331,DEF 14A,20240331,,,20240715,2024-07-15 16:57:00,0,0,apps-20240715_htm.xml,1,
0001193125-24-180420,1740332,"RESIDEO TECHNOLOGIES, INC.",5072,US,TX,AUSTIN,78702,901 E 6TH STREET,,512-726-3500,US,TX,AUSTIN,78702,901 E 6TH STREET,,US,DE,825318796,HH SPINCO INC.,20180510,1-LAF,0,1231,8-K,20240731,,,20240717,2024-07-17 16:45:00,0,0,d824487d8k_htm.xml,1,
0001193125-24-180426,1524931,"CHUY'S HOLDINGS, INC.",5812,US,TX,AUSTIN,78704,1623 TOOMEY ROAD,,512-473-2783,US,TX,AUSTIN,78704,1623 TOOMEY ROAD,,US,DE,205717694,,,1-LAF,0,1231,8-K,20240731,,,20240717,2024-07-17 16:49:00,0,0,d873202d8k_htm.xml,1,
0001437749-24-022876,1069530,CASSAVA SCIENCES INC,2834,US,TX,AUSTIN,78731,6801 N CAPITAL OF TEXAS HIGHWAY,BUILDING 1; SUITE 300,512-501-2444,US,TX,AUSTIN,78731,6801 N CAPITAL OF TEXAS HIGHWAY,BUILDING 1; SUITE 300,US,DE,911911336,PAIN THERAPEUTICS INC,20000309,1-LAF,0,1231,8-K,20240630,,,20240717,2024-07-17 9:16:00,1,0,sava20240717_8k_htm.xml,1,
0001640334-24-001128,1680689,"NATURAL RESOURCE HOLDINGS, INC.",5960,US,TX,AUSTIN,78735,7500 RIALTO BOULEVARD OAK HILL,,4159685642,US,TX,AUSTIN,78735,7500 RIALTO BOULEVARD OAK HILL,,,,320500871,BOXXY INC.,20160725,4-NON,0,430,10-K,20240430,2024,FY,20240717,2024-07-17 13:13:00,1,1,boxxy_10k_htm.xml,1,
0001437749-24-022952,1069530,CASSAVA SCIENCES INC,2834,US,TX,AUSTIN,78731,6801 N CAPITAL OF TEXAS HIGHWAY,BUILDING 1; SUITE 300,512-501-2444,US,TX,AUSTIN,78731,6801 N CAPITAL OF TEXAS HIGHWAY,BUILDING 1; SUITE 300,US,DE,911911336,PAIN THERAPEUTICS INC,20000309,1-LAF,0,1231,8-K,20240731,,,20240718,2024-07-18 8:15:00,1,0,sava20240716_8k_htm.xml,1,
0001386278-24-000037,1386278,GREEN DOT CORP,6199,US,TX,AUSTIN,78701,114 W 7TH STREET SUITE 240,,6267652000,US,OH,CINCINNATI,45241,"4675 CORNELL ROAD, SUITE 280",,US,DE,0,,,1-LAF,0,1231,8-K,20240731,,,20240719,2024-07-19 16:15:00,0,0,gdot-20240719_htm.xml,1,
0001104659-24-081571,1535527,"CROWDSTRIKE HOLDINGS, INC.",7372,US,TX,AUSTIN,78701,206 E. 9TH STREET,SUITE 1400,888-512-8906,US,TX,AUSTIN,78701,206 E. 9TH STREET,SUITE 1400,US,DE,453788918,,,1-LAF,0,131,8-K,20240731,,,20240722,2024-07-22 17:28:00,0,0,tm2419936d1_8k_htm.xml,1,
0001104659-24-081215,1604821,"NATERA, INC.",8071,US,TX,AUSTIN,78753,13011 MCCALLEN PASS,BUILDING A SUITE 100,650-249-9090,US,TX,AUSTIN,78753,13011 MCCALLEN PASS,BUILDING A SUITE 100,US,DE,10894487,,,1-LAF,0,1231,8-K,20240731,,,20240722,2024-07-19 18:35:00,0,0,tm2419819d1_8k_htm.xml,1,
0001437749-24-023128,1069530,CASSAVA SCIENCES INC,2834,US,TX,AUSTIN,78731,6801 N CAPITAL OF TEXAS HIGHWAY,BUILDING 1; SUITE 300,512-501-2444,US,TX,AUSTIN,78731,6801 N CAPITAL OF TEXAS HIGHWAY,BUILDING 1; SUITE 300,US,DE,911911336,PAIN THERAPEUTICS INC,20000309,1-LAF,0,1231,8-K,20240731,,,20240722,2024-07-22 8:12:00,1,0,sava20240721_8k_htm.xml,1,
0000950170-24-085635,1828161,"FTC SOLAR, INC.",3674,US,TX,AUSTIN,78759,"9020 N CAPITAL OF TEXAS HWY, SUITE I-260",,(907) 312-0717,US,TX,AUSTIN,78759,"9020 N CAPITAL OF TEXAS HWY, SUITE I-260",,US,DE,814816270,,,2-ACC,0,1231,8-K,20240731,,,20240723,2024-07-23 16:13:00,0,0,ftci-20240723_htm.xml,1,
0001524931-24-000081,1524931,"CHUY'S HOLDINGS, INC.",5812,US,TX,AUSTIN,78704,1623 TOOMEY ROAD,,512-473-2783,US,TX,AUSTIN,78704,1623 TOOMEY ROAD,,US,DE,205717694,,,1-LAF,0,1231,8-K,20240731,,,20240723,2024-07-23 16:10:00,0,0,chuy-20240723_htm.xml,1,
0001628280-24-032501,1839341,"CORE SCIENTIFIC, INC./TX",6199,US,TX,AUSTIN,78701,"106 EAST 6TH STREET, SUITE 900-145",,(425) 998-5300,US,TX,AUSTIN,78701,"106 EAST 6TH STREET, SUITE 900-145",,US,DE,0,POWER & DIGITAL INFRASTRUCTURE ACQUISITION CORP.,20210106,2-ACC,0,1231,8-K,20240731,,,20240723,2024-07-22 19:18:00,0,0,core-20240722_htm.xml,1,
0001193125-24-183717,1634452,AB PRIVATE CREDIT INVESTORS CORP,,US,TX,AUSTIN,78701,405 COLORADO STREET,SUITE 1500,(512) 721-2900,US,TX,AUSTIN,78701,405 COLORADO STREET,SUITE 1500,US,MD,0,AB PRIVATE CREDIT CORP,20150219,4-NON,0,1231,8-K,20240731,,,20240724,2024-07-24 14:47:00,0,0,d844180d8k_htm.xml,1,
0001628280-24-032692,1038074,SILICON LABORATORIES INC.,3674,US,TX,AUSTIN,78701,400 W CESAR CHAVEZ,,5124168500,US,TX,AUSTIN,78701,400 W CESAR CHAVEZ,,US,DE,742793174,SILICON LABORATORIES INC,20000105,1-LAF,0,1231,8-K,20240731,,,20240724,2024-07-24 7:49:00,0,0,slab-20240724_htm.xml,1,
0001628280-24-032746,1038074,SILICON LABORATORIES INC.,3674,US,TX,AUSTIN,78701,400 W CESAR CHAVEZ,,5124168500,US,TX,AUSTIN,78701,400 W CESAR CHAVEZ,,US,DE,742793174,SILICON LABORATORIES INC,20000105,1-LAF,0,1231,10-Q,20240630,2024,Q2,20240724,2024-07-24 9:26:00,0,1,slab-20240629_htm.xml,1,
0001193125-24-184975,1982701,AB PRIVATE LENDING FUND,,US,TX,AUSTIN,78701,405 COLORADO STREET,SUITE 1500,512-721-2900,US,TX,AUSTIN,78701,405 COLORADO STREET,SUITE 1500,US,DE,0,,,,0,1231,N-2/A,,,,20240725,2024-07-25 17:29:00,1,0,d494206dn2a_htm.xml,1,
0001493152-24-029120,1780312,"AST SPACEMOBILE, INC.",4899,US,TX,AUSTIN,78730,6500 RIVERPLACE BOULEVARD,,9179694834,US,TX,AUSTIN,78730,6500 RIVERPLACE BOULEVARD,,US,DE,0,NEW PROVIDENCE ACQUISITION CORP.,20190620,4-NON,0,1231,8-K,20240731,,,20240725,2024-07-25 17:25:00,0,0,form8-k_htm.xml,1,
0001558370-24-010180,1297996,"DIGITAL REALTY TRUST, INC.",6798,US,TX,AUSTIN,78735,"5707 SOUTHWEST PARKWAY, BUILDING 1",SUITE 275,(737) 281-0101,US,TX,AUSTIN,78735,"5707 SOUTHWEST PARKWAY, BUILDING 1",SUITE 275,,,260081711,"DIGITAL REALTY TRUST, INC.",20040722,1-LAF,0,1231,8-K,20240731,,,20240725,2024-07-25 16:10:00,0,0,dlr-20240725x8k_htm.xml,1,
0001739942-24-000088,1739942,SOLARWINDS CORP,7372,US,TX,AUSTIN,78735,"7171 SOUTHWEST PKWY., BLDG. 400",,5126829300,US,TX,AUSTIN,78735,"7171 SOUTHWEST PKWY., BLDG. 400",,US,DE,810753267,"SOLARWINDS PARENT, INC.",20180508,2-ACC,0,1231,8-K,20240731,,,20240725,2024-07-25 16:02:00,0,0,swi-20240724_htm.xml,1,
0001193125-24-186198,1982701,AB PRIVATE LENDING FUND,,US,TX,AUSTIN,78701,405 COLORADO STREET,SUITE 1500,512-721-2900,US,TX,AUSTIN,78701,405 COLORADO STREET,SUITE 1500,US,DE,0,,,,0,1231,N-2/A,,,,20240726,2024-07-26 16:07:00,0,0,d847837dn2a_htm.xml,1,
0001193125-24-186279,1420565,"AILERON THERAPEUTICS, INC.",2834,US,TX,AUSTIN,78758,12407 N. MOPAC EXPY.,SUITE 250 #390,7378021989,US,TX,AUSTIN,78758,12407 N. MOPAC EXPY.,SUITE 250 #390,,,134196017,AILERON THERAPEUTICS INC,20071207,4-NON,0,1231,8-K,20240731,,,20240726,2024-07-26 16:36:00,0,0,d868344d8k_htm.xml,1,
0000772406-24-000050,772406,"CIRRUS LOGIC, INC.",3674,US,TX,AUSTIN,78701,800 WEST 6TH STREET,,512-851-4000,US,TX,AUSTIN,78701,800 WEST 6TH STREET,,US,DE,770024818,CIRRUS LOGIC INC,19920703,1-LAF,0,331,8-K,20240731,,,20240729,2024-07-29 16:01:00,0,0,crus-20240726_htm.xml,1,
0000950170-24-087276,926617,ASPIRA WOMEN'S HEALTH INC.,2835,US,TX,AUSTIN,78738,12117 BEE CAVES ROAD BUILDING THREE,SUITE 100,512-519-0400,US,TX,AUSTIN,78738,12117 BEE CAVES ROAD BUILDING THREE,SUITE 100,US,DE,330595156,"VERMILLION, INC.",20070824,4-NON,0,1231,8-K,20240731,,,20240729,2024-07-29 16:05:00,0,0,awh-20240725_htm.xml,1,
0001013762-24-001712,1914023,ACRI CAPITAL ACQUISITION CORP,6770,US,TX,AUSTIN,78729,13284 POND SPRING RD,STE 405,5126661277,US,TX,AUSTIN,78729,13284 POND SPRING RD,STE 405,US,DE,874328187,,,4-NON,0,1231,8-K,20240731,,,20240729,2024-07-26 18:00:00,0,0,ea021010201-8k_acricap_htm.xml,1,
0001104659-24-083545,350868,"ITERIS, INC.",3669,US,TX,AUSTIN,78746,1250 S. CAPITAL OF TEXAS HWY.,"BLDG. 1, SUITE 330",512-716-0808,US,TX,AUSTIN,78746,1250 S. CAPITAL OF TEXAS HWY.,"BLDG. 1, SUITE 330",US,DE,952588496,ITERIS HOLDINGS  INC,20031107,2-ACC,0,331,10-K/A,20240331,2024,FY,20240729,2024-07-29 16:16:00,0,0,tm2420138d1_10ka_htm.xml,1,
0001013762-24-002094,1837929,NEW PROVIDENCE ACQUISITION CORP. II,6770,US,TX,AUSTIN,78730,6500 RIVERPLACE BOULEVARD,,917-969-4834,US,TX,AUSTIN,78730,6500 RIVERPLACE BOULEVARD,,US,DE,0,,,4-NON,0,1231,8-K,20240731,,,20240729,2024-07-29 16:15:00,0,0,ea0210199-8k_newpro2_htm.xml,1,
0001497645-24-000065,1497645,"SUMMIT HOTEL PROPERTIES, INC.",6798,US,TX,AUSTIN,78738,13215 BEE CAVE PARKWAY,SUITE B-300,512-538-2300,US,TX,AUSTIN,78738,13215 BEE CAVE PARKWAY,SUITE B-300,US,MD,272962512,,,1-LAF,0,1231,8-K,20240731,,,20240729,2024-07-29 16:42:00,0,0,inn-20240729_htm.xml,1,
0001497645-24-000067,1497645,"SUMMIT HOTEL PROPERTIES, INC.",6798,US,TX,AUSTIN,78738,13215 BEE CAVE PARKWAY,SUITE B-300,512-538-2300,US,TX,AUSTIN,78738,13215 BEE CAVE PARKWAY,SUITE B-300,US,MD,272962512,,,1-LAF,0,1231,10-Q,20240630,2024,Q2,20240730,2024-07-29 17:49:00,0,1,inn-20240630_htm.xml,1,
0000950170-24-088246,926617,ASPIRA WOMEN'S HEALTH INC.,2835,US,TX,AUSTIN,78738,12117 BEE CAVES ROAD BUILDING THREE,SUITE 100,512-519-0400,US,TX,AUSTIN,78738,12117 BEE CAVES ROAD BUILDING THREE,SUITE 100,US,DE,330595156,"VERMILLION, INC.",20070824,4-NON,0,1231,8-K,20240731,,,20240731,2024-07-31 7:58:00,0,0,awh-20240731_htm.xml,1,
0001410384-24-000156,1410384,"Q2 HOLDINGS, INC.",7372,US,TX,AUSTIN,78729,10355 PECAN PARK BOULEVARD,,1-833-444-3469,US,TX,Austin,78729,10355 PECAN PARK BOULEVARD,,,,202706637,"CBG HOLDINGS, INC.",20120103,1-LAF,0,1231,8-K,20240731,,,20240731,2024-07-31 16:35:00,0,0,qtwo-20240731_htm.xml,1,
0001410384-24-000159,1410384,"Q2 HOLDINGS, INC.",7372,US,TX,AUSTIN,78729,10355 PECAN PARK BOULEVARD,,1-833-444-3469,US,TX,Austin,78729,10355 PECAN PARK BOULEVARD,,,,202706637,"CBG HOLDINGS, INC.",20120103,1-LAF,0,1231,8-K,20240731,,,20240731,2024-07-31 16:59:00,0,0,qtwo-20240729_htm.xml,1,
0001410384-24-000160,1410384,"Q2 HOLDINGS, INC.",7372,US,TX,AUSTIN,78729,10355 PECAN PARK BOULEVARD,,1-833-444-3469,US,TX,Austin,78729,10355 PECAN PARK BOULEVARD,,,,202706637,"CBG HOLDINGS, INC.",20120103,1-LAF,0,1231,10-Q,20240630,2024,Q2,20240731,2024-07-31 17:02:00,0,1,qtwo-20240630_htm.xml,1,
0001477932-24-004456,1682265,"RELIANT HOLDINGS, INC.",1700,US,TX,AUSTIN,78750,12343 HYMEADOW DRIVE,SUITE 3-A,512-917-2930,US,TX,AUSTIN,78750,12343 HYMEADOW DRIVE,SUITE 3-A,US,NV,472200506,,,4-NON,0,1231,8-K/A,20240531,,,20240731,2024-07-31 12:07:00,0,0,reliant_8ka_htm.xml,1,
0000950170-24-088945,1626450,"BIGCOMMERCE HOLDINGS, INC.",7372,US,TX,AUSTIN,78726,"11305 FOUR POINTS DR, BLDG 2, SUITE 100",,1-888-699-8911,US,TX,AUSTIN,78726,"11305 FOUR POINTS DR, BLDG 2, SUITE 100",,US,DE,462707656,,,1-LAF,0,1231,8-K,20240731,,,20240801,2024-08-01 7:11:00,0,0,bigc-20240801_htm.xml,1,
0000950170-24-088947,1626450,"BIGCOMMERCE HOLDINGS, INC.",7372,US,TX,AUSTIN,78726,"11305 FOUR POINTS DR, BLDG 2, SUITE 100",,1-888-699-8911,US,TX,AUSTIN,78726,"11305 FOUR POINTS DR, BLDG 2, SUITE 100",,US,DE,462707656,,,1-LAF,0,1231,10-Q,20240630,2024,Q2,20240801,2024-08-01 7:16:00,0,1,bigc-20240630_htm.xml,1,
0000884144-24-000054,884144,ASURE SOFTWARE INC,7373,US,TX,AUSTIN,78701,405 COLORADO ST,#1800,5124372700,US,TX,AUSTIN,78701,405 COLORADO ST,#1800,US,DE,742415696,FORGENT NETWORKS  INC,20020215,4-NON,0,1231,8-K,20240731,,,20240801,2024-08-01 16:02:00,0,0,asur-20240801_htm.xml,1,
0000884144-24-000053,884144,ASURE SOFTWARE INC,7373,US,TX,AUSTIN,78701,405 COLORADO ST,#1800,5124372700,US,TX,AUSTIN,78701,405 COLORADO ST,#1800,US,DE,742415696,FORGENT NETWORKS  INC,20020215,4-NON,0,1231,10-Q,20240630,2024,Q2,20240801,2024-08-01 16:01:00,0,1,asur-20240630_htm.xml,1,
0001126234-24-000086,1126234,"LUMOS PHARMA, INC.",2834,US,TX,AUSTIN,78756,4200 MARATHON BLVD.,SUITE 200,512-215-2630,US,TX,AUSTIN,78756,4200 MARATHON BLVD.,SUITE 200,US,DE,421491350,NEWLINK GENETICS CORP,20001012,4-NON,0,1231,8-K,20240731,,,20240801,2024-08-01 17:07:00,0,0,lumo-20240801_htm.xml,1,
0001505155-24-000068,1505155,"UPLAND SOFTWARE, INC.",7372,US,TX,AUSTIN,78701,401 CONGRESS AVE.,SUITE 1850,512-960-1010,US,TX,AUSTIN,78701,401 CONGRESS AVE.,SUITE 1850,US,TX,272992077,SILVERBACK ACQUISITION CORP,20101105,2-ACC,0,1231,8-K,20240731,,,20240801,2024-08-01 16:05:00,0,0,upld-20240801_htm.xml,1,
0001505155-24-000069,1505155,"UPLAND SOFTWARE, INC.",7372,US,TX,AUSTIN,78701,401 CONGRESS AVE.,SUITE 1850,512-960-1010,US,TX,AUSTIN,78701,401 CONGRESS AVE.,SUITE 1850,US,TX,272992077,SILVERBACK ACQUISITION CORP,20101105,2-ACC,0,1231,10-Q,20240630,2024,Q2,20240801,2024-08-01 16:08:00,0,1,upld-20240630_htm.xml,1,
0001680367-24-000038,1680367,"SHATTUCK LABS, INC.",2834,US,TX,AUSTIN,78701,500 W. 5TH STREET,,512-900-4690,US,TX,AUSTIN,78701,500 W. 5TH STREET,,US,DE,812575858,,,4-NON,0,1231,8-K,20240731,,,20240801,2024-08-01 16:15:00,0,0,sttk-20240801_htm.xml,1,
0001680367-24-000040,1680367,"SHATTUCK LABS, INC.",2834,US,TX,AUSTIN,78701,500 W. 5TH STREET,,512-900-4690,US,TX,AUSTIN,78701,500 W. 5TH STREET,,US,DE,812575858,,,4-NON,0,1231,10-Q,20240630,2024,Q2,20240801,2024-08-01 16:19:00,0,1,sttk-20240630_htm.xml,1,
0001739942-24-000092,1739942,SOLARWINDS CORP,7372,US,TX,AUSTIN,78735,"7171 SOUTHWEST PKWY., BLDG. 400",,5126829300,US,TX,AUSTIN,78735,"7171 SOUTHWEST PKWY., BLDG. 400",,US,DE,810753267,"SOLARWINDS PARENT, INC.",20180508,2-ACC,0,1231,8-K,20240731,,,20240801,2024-08-01 8:02:00,0,0,swi-20240801_htm.xml,1,
0000950170-24-089963,1830043,BUMBLE INC.,7370,US,TX,AUSTIN,78756,1105 WEST 41ST STREET,,512-696-1409,US,TX,AUSTIN,78756,1105 WEST 41ST STREET,,,,853604367,,,1-LAF,0,1231,8-K,20240731,,,20240802,2024-08-02 16:11:00,0,0,bmbl-20240730_htm.xml,1,
0000950170-24-090145,926617,ASPIRA WOMEN'S HEALTH INC.,2835,US,TX,AUSTIN,78738,12117 BEE CAVES ROAD BUILDING THREE,SUITE 100,512-519-0400,US,TX,AUSTIN,78738,12117 BEE CAVES ROAD BUILDING THREE,SUITE 100,US,DE,330595156,"VERMILLION, INC.",20070824,4-NON,0,1231,8-K,20240731,,,20240802,2024-08-02 17:27:00,0,0,awh-20240802_htm.xml,1,
0001126234-24-000088,1126234,"LUMOS PHARMA, INC.",2834,US,TX,AUSTIN,78756,4200 MARATHON BLVD.,SUITE 200,512-215-2630,US,TX,AUSTIN,78756,4200 MARATHON BLVD.,SUITE 200,US,DE,421491350,NEWLINK GENETICS CORP,20001012,4-NON,0,1231,10-Q,20240630,2024,Q2,20240802,2024-08-02 8:18:00,0,1,nlnk-20240630_htm.xml,1,
0001558370-24-010734,1297996,"DIGITAL REALTY TRUST, INC.",6798,US,TX,AUSTIN,78735,"5707 SOUTHWEST PARKWAY, BUILDING 1",SUITE 275,(737) 281-0101,US,TX,AUSTIN,78735,"5707 SOUTHWEST PARKWAY, BUILDING 1",SUITE 275,US,MD,260081711,"DIGITAL REALTY TRUST, INC.",20040722,1-LAF,0,1231,10-Q,20240630,2024,Q2,20240802,2024-08-02 17:17:00,0,1,dlr-20240630x10q_htm.xml,2,1494877
0001625641-24-000113,1625641,"CS DISCO, INC.",7372,US,TX,AUSTIN,78701,111 CONGRESS AVE,SUITE 900,713-231-9100,US,TX,AUSTIN,78701,111 CONGRESS AVE,SUITE 900,US,DE,464254444,,,2-ACC,0,1231,8-K,20240731,,,20240802,2024-08-02 17:18:00,0,0,law-20240729_htm.xml,1,
0001739942-24-000096,1739942,SOLARWINDS CORP,7372,US,TX,AUSTIN,78735,"7171 SOUTHWEST PKWY., BLDG. 400",,5126829300,US,TX,AUSTIN,78735,"7171 SOUTHWEST PKWY., BLDG. 400",,US,DE,810753267,"SOLARWINDS PARENT, INC.",20180508,2-ACC,0,1231,10-Q,20240630,2024,Q2,20240802,2024-08-02 16:07:00,0,1,swi-20240630_htm.xml,1,
0000950170-24-090850,1984060,ATLAS ENERGY SOLUTIONS INC.,1311,US,TX,AUSTIN,78730,5918 WEST COURTYARD DRIVE,SUITE 500,5122201200,US,TX,AUSTIN,78730,5918 WEST COURTYARD DRIVE,SUITE 500,US,DE,932154509,NEW ATLAS HOLDCO INC.,20230703,4-NON,0,1231,8-K,20240731,,,20240805,2024-08-05 16:36:00,0,0,aesi-20240805_htm.xml,1,
0000950170-24-090702,1785056,"INTERACTIVE STRENGTH, INC.",3600,US,TX,AUSTIN,78701,1005 CONGRESS AVENUE,SUITE 925,3106978655,US,TX,AUSTIN,78701,1005 CONGRESS AVENUE,SUITE 925,US,DE,821432916,,,4-NON,0,1231,DEF 14A,20240831,,,20240805,2024-08-05 16:22:00,0,0,trnr-20240805_htm.xml,1,
0001489096-24-000145,1489096,"THERMON GROUP HOLDINGS, INC.",3620,US,TX,AUSTIN,78735,7171 SOUTHWEST PARKWAY,"BUILDING 300, SUITE 200",5126900600,US,TX,AUSTIN,78735,7171 SOUTHWEST PARKWAY,"BUILDING 300, SUITE 200",US,DE,272228185,,,1-LAF,0,331,8-K,20240731,,,20240805,2024-08-05 17:06:00,0,0,thr-20240731_htm.xml,1,
0001628280-24-034718,1839341,"CORE SCIENTIFIC, INC./TX",6199,US,TX,AUSTIN,78701,"106 EAST 6TH STREET, SUITE 900-145",,(425) 998-5300,US,TX,AUSTIN,78701,"106 EAST 6TH STREET, SUITE 900-145",,US,DE,0,POWER & DIGITAL INFRASTRUCTURE ACQUISITION CORP.,20210106,2-ACC,0,1231,8-K,20240731,,,20240805,2024-08-05 16:04:00,0,0,core-20240805_htm.xml,1,
0000024090-24-000141,24090,"CITIZENS, INC.",6311,US,TX,AUSTIN,78758,11815 ALTERRA PKWY,SUITE 1500,5128377100,US,TX,AUSTIN,78714,P O BOX 149151,,US,CO,840755371,CITIZENS INC,19920703,2-ACC,0,1231,10-Q,20240630,2024,Q2,20240806,2024-08-06 16:14:00,0,1,cia-20240630_htm.xml,1,
0000024090-24-000142,24090,"CITIZENS, INC.",6311,US,TX,AUSTIN,78758,11815 ALTERRA PKWY,SUITE 1500,5128377100,US,TX,AUSTIN,78714,P O BOX 149151,,US,CO,840755371,CITIZENS INC,19920703,2-ACC,0,1231,8-K,20240731,,,20240806,2024-08-06 16:14:00,0,0,cia-20240806_htm.xml,1,
0000772406-24-000056,772406,"CIRRUS LOGIC, INC.",3674,US,TX,AUSTIN,78701,800 WEST 6TH STREET,,512-851-4000,US,TX,AUSTIN,78701,800 WEST 6TH STREET,,US,DE,770024818,CIRRUS LOGIC INC,19920703,1-LAF,0,331,8-K,20240731,,,20240806,2024-08-06 16:00:00,0,0,crus-20240806_htm.xml,1,
0000772406-24-000057,772406,"CIRRUS LOGIC, INC.",3674,US,TX,AUSTIN,78701,800 WEST 6TH STREET,,512-851-4000,US,TX,AUSTIN,78701,800 WEST 6TH STREET,,US,DE,770024818,CIRRUS LOGIC INC,19920703,1-LAF,0,331,10-Q,20240630,2025,Q1,20240806,2024-08-06 16:04:00,0,1,crus-20240629_htm.xml,1,
0000950170-24-091106,1984060,ATLAS ENERGY SOLUTIONS INC.,1311,US,TX,AUSTIN,78730,5918 WEST COURTYARD DRIVE,SUITE 500,5122201200,US,TX,AUSTIN,78730,5918 WEST COURTYARD DRIVE,SUITE 500,US,DE,932154509,NEW ATLAS HOLDCO INC.,20230703,4-NON,0,1231,8-K,20240731,,,20240806,2024-08-05 20:35:00,0,0,aesi-20240805_htm.xml,1,
0000950170-24-091945,1984060,ATLAS ENERGY SOLUTIONS INC.,1311,US,TX,AUSTIN,78730,5918 WEST COURTYARD DRIVE,SUITE 500,5122201200,US,TX,AUSTIN,78730,5918 WEST COURTYARD DRIVE,SUITE 500,US,DE,932154509,NEW ATLAS HOLDCO INC.,20230703,4-NON,0,1231,10-Q,20240630,2024,Q2,20240806,2024-08-06 16:50:00,0,1,aesi-20240630_htm.xml,1,
0001213900-24-065375,1733413,"TFF PHARMACEUTICALS, INC.",2834,US,TX,AUSTIN,78746,"2600 VIA FORTUNA, SUITE 360",,737-802-1973,US,TX,AUSTIN,78746,"2600 VIA FORTUNA, SUITE 360",,US,DE,824344737,,,4-NON,0,1231,8-K,20240731,,,20240806,2024-08-06 8:00:00,0,0,ea0210679-8k_tffpharma_htm.xml,1,
0001522727-24-000030,1522727,"USA COMPRESSION PARTNERS, LP",4922,US,TX,AUSTIN,78701,111 CONGRESS AVENUE,SUITE 2400,512-473-2662,US,TX,AUSTIN,78701,111 CONGRESS AVENUE,SUITE 2400,,,752771546,,,1-LAF,0,1231,8-K,20240731,,,20240806,2024-08-06 6:57:00,0,0,usac-20240806_htm.xml,1,
0001522727-24-000032,1522727,"USA COMPRESSION PARTNERS, LP",4922,US,TX,AUSTIN,78701,111 CONGRESS AVENUE,SUITE 2400,512-473-2662,US,TX,AUSTIN,78701,111 CONGRESS AVENUE,SUITE 2400,,,752771546,,,1-LAF,0,1231,10-Q,20240630,2024,Q2,20240806,2024-08-06 16:32:00,0,1,usac-20240630_htm.xml,1,
0001628280-24-034989,1839341,"CORE SCIENTIFIC, INC./TX",6199,US,TX,AUSTIN,78701,"106 EAST 6TH STREET, SUITE 900-145",,(425) 998-5300,US,TX,AUSTIN,78701,"106 EAST 6TH STREET, SUITE 900-145",,US,DE,0,POWER & DIGITAL INFRASTRUCTURE ACQUISITION CORP.,20210106,2-ACC,0,1231,8-K,20240731,,,20240806,2024-08-06 9:21:00,0,0,core-20240806_htm.xml,1,
0001628280-24-035171,1831097,"AGILON HEALTH, INC.",8090,US,TX,AUSTIN,78723,6210 E HWY 290,SUITE 450,562-256-3800,US,TX,AUSTIN,78723,6210 E HWY 290,SUITE 450,US,DE,371915147,"AGILON HEALTH TOPCO, INC.",20201103,1-LAF,0,1231,8-K,20240731,,,20240806,2024-08-06 16:04:00,0,0,agl-20240806_htm.xml,1,
0001628280-24-035179,1831097,"AGILON HEALTH, INC.",8090,US,TX,AUSTIN,78723,6210 E HWY 290,SUITE 450,562-256-3800,US,TX,AUSTIN,78723,6210 E HWY 290,SUITE 450,US,DE,371915147,"AGILON HEALTH TOPCO, INC.",20201103,1-LAF,0,1231,10-Q,20240630,2024,Q2,20240806,2024-08-06 16:09:00,0,1,agl-20240630_htm.xml,1,
0000950170-24-092742,1830043,BUMBLE INC.,7370,US,TX,AUSTIN,78756,1105 WEST 41ST STREET,,512-696-1409,US,TX,AUSTIN,78756,1105 WEST 41ST STREET,,,,853604367,,,1-LAF,0,1231,8-K,20240731,,,20240807,2024-08-07 16:05:00,0,0,bmbl-20240807_htm.xml,1,
0001193125-24-195845,1982701,AB PRIVATE LENDING FUND,,US,TX,AUSTIN,78701,405 COLORADO STREET,SUITE 1500,512-721-2900,US,TX,AUSTIN,78701,405 COLORADO STREET,SUITE 1500,US,DE,0,,,,0,1231,424B3,,,,20240807,2024-08-07 15:47:00,0,0,d847837d424b3_htm.xml,1,
0001333493-24-000122,1333493,"EHEALTH, INC.",6411,US,TX,AUSTIN,78717,"13620 RANCH ROAD 620 N, SUITE A250",,737-248-2340,US,TX,AUSTIN,78717,"13620 RANCH ROAD 620 N, SUITE A250",,US,DE,770470789,,,2-ACC,0,1231,8-K,20240731,,,20240807,2024-08-07 7:39:00,0,0,ehth-20240806_htm.xml,1,
0001333493-24-000126,1333493,"EHEALTH, INC.",6411,US,TX,AUSTIN,78717,"13620 RANCH ROAD 620 N, SUITE A250",,737-248-2340,US,TX,AUSTIN,78717,"13620 RANCH ROAD 620 N, SUITE A250",,US,DE,770470789,,,2-ACC,0,1231,10-Q,20240630,2024,Q2,20240807,2024-08-07 16:16:00,0,1,ehth-20240630_htm.xml,1,
0001489096-24-000149,1489096,"THERMON GROUP HOLDINGS, INC.",3620,US,TX,AUSTIN,78735,7171 SOUTHWEST PARKWAY,"BUILDING 300, SUITE 200",5126900600,US,TX,AUSTIN,78735,7171 SOUTHWEST PARKWAY,"BUILDING 300, SUITE 200",US,DE,272228185,,,1-LAF,0,331,8-K,20240731,,,20240807,2024-08-07 6:46:00,0,0,thr-20240807_htm.xml,1,
0001489096-24-000154,1489096,"THERMON GROUP HOLDINGS, INC.",3620,US,TX,AUSTIN,78735,7171 SOUTHWEST PARKWAY,"BUILDING 300, SUITE 200",5126900600,US,TX,AUSTIN,78735,7171 SOUTHWEST PARKWAY,"BUILDING 300, SUITE 200",US,DE,272228185,,,1-LAF,0,331,10-Q,20240630,2025,Q1,20240807,2024-08-07 14:19:00,0,1,thr-20240630_htm.xml,1,
0001628280-24-035601,317788,"DIGITAL TURBINE, INC.",6794,US,TX,AUSTIN,78701,111 NUECES STREET,,(512) 387-7717,US,TX,AUSTIN,78701,111 NUECES STREET,,US,DE,222267658,"MANDALAY DIGITAL GROUP, INC.",20120207,1-LAF,0,331,8-K,20240731,,,20240807,2024-08-07 16:06:00,0,0,apps-20240807_htm.xml,1,
0001628280-24-035714,1839341,"CORE SCIENTIFIC, INC./TX",6199,US,TX,AUSTIN,78701,"106 EAST 6TH STREET, SUITE 900-145",,(425) 998-5300,US,TX,AUSTIN,78701,"106 EAST 6TH STREET, SUITE 900-145",,US,DE,0,POWER & DIGITAL INFRASTRUCTURE ACQUISITION CORP.,20210106,2-ACC,0,1231,10-Q,20240630,2024,Q2,20240807,2024-08-07 17:18:00,0,1,core-20240630_htm.xml,1,
0001628280-24-035686,317788,"DIGITAL TURBINE, INC.",6794,US,TX,AUSTIN,78701,111 NUECES STREET,,(512) 387-7717,US,TX,AUSTIN,78701,111 NUECES STREET,,US,DE,222267658,"MANDALAY DIGITAL GROUP, INC.",20120207,1-LAF,0,331,10-Q,20240630,2025,Q1,20240807,2024-08-07 16:55:00,0,1,apps-20240630_htm.xml,1,
0001628280-24-035651,1839341,"CORE SCIENTIFIC, INC./TX",6199,US,TX,AUSTIN,78701,"106 EAST 6TH STREET, SUITE 900-145",,(425) 998-5300,US,TX,AUSTIN,78701,"106 EAST 6TH STREET, SUITE 900-145",,US,DE,0,POWER & DIGITAL INFRASTRUCTURE ACQUISITION CORP.,20210106,2-ACC,0,1231,8-K,20240731,,,20240807,2024-08-07 16:23:00,0,0,core-20240807_htm.xml,1,
0000350868-24-000023,350868,"ITERIS, INC.",3669,US,TX,AUSTIN,78746,1250 S. CAPITAL OF TEXAS HWY.,"BLDG. 1, SUITE 330",512-716-0808,US,TX,AUSTIN,78746,1250 S. CAPITAL OF TEXAS HWY.,"BLDG. 1, SUITE 330",US,DE,952588496,ITERIS HOLDINGS  INC,20031107,2-ACC,0,331,8-K,20240731,,,20240808,2024-08-08 16:14:00,0,0,iti-20240808_htm.xml,1,
0000350868-24-000025,350868,"ITERIS, INC.",3669,US,TX,AUSTIN,78746,1250 S. CAPITAL OF TEXAS HWY.,"BLDG. 1, SUITE 330",512-716-0808,US,TX,AUSTIN,78746,1250 S. CAPITAL OF TEXAS HWY.,"BLDG. 1, SUITE 330",US,DE,952588496,ITERIS HOLDINGS  INC,20031107,2-ACC,0,331,10-Q,20240630,2025,Q1,20240808,2024-08-08 16:22:00,0,1,iti-20240630_htm.xml,1,
0000950170-24-093094,1626450,"BIGCOMMERCE HOLDINGS, INC.",7372,US,TX,AUSTIN,78726,"11305 FOUR POINTS DR, BLDG 2, SUITE 100",,1-888-699-8911,US,TX,AUSTIN,78726,"11305 FOUR POINTS DR, BLDG 2, SUITE 100",,US,DE,462707656,,,1-LAF,0,1231,8-K,20240731,,,20240808,2024-08-07 18:23:00,0,0,bigc-20240807_htm.xml,1,
0000950170-24-093276,1828161,"FTC SOLAR, INC.",3674,US,TX,AUSTIN,78759,"9020 N CAPITAL OF TEXAS HWY, SUITE I-260",,(907) 312-0717,US,TX,AUSTIN,78759,"9020 N CAPITAL OF TEXAS HWY, SUITE I-260",,US,DE,814816270,,,2-ACC,0,1231,8-K,20240731,,,20240808,2024-08-08 6:40:00,0,0,ftci-20240808_htm.xml,1,
0000950170-24-093324,1579733,"VITAL FARMS, INC.",2000,US,TX,AUSTIN,78704,3601 SOUTH CONGRESS AVENUE,SUITE C100,(877) 455-3063,US,TX,AUSTIN,78704,3601 SOUTH CONGRESS AVENUE,SUITE C100,US,DE,270496985,,,2-ACC,0,1231,8-K,20240731,,,20240808,2024-08-08 7:25:00,0,0,vitl-20240808_htm.xml,1,
0000950170-24-093329,1579733,"VITAL FARMS, INC.",2000,US,TX,AUSTIN,78704,3601 SOUTH CONGRESS AVENUE,SUITE C100,(877) 455-3063,US,TX,AUSTIN,78704,3601 SOUTH CONGRESS AVENUE,SUITE C100,US,DE,270496985,,,2-ACC,0,1231,10-Q,20240630,2024,Q2,20240808,2024-08-08 7:31:00,0,1,vitl-20240630_htm.xml,1,
0000950170-24-093388,1828161,"FTC SOLAR, INC.",3674,US,TX,AUSTIN,78759,"9020 N CAPITAL OF TEXAS HWY, SUITE I-260",,(907) 312-0717,US,TX,AUSTIN,78759,"9020 N CAPITAL OF TEXAS HWY, SUITE I-260",,US,DE,814816270,,,2-ACC,0,1231,10-Q,20240630,2024,Q2,20240808,2024-08-08 9:26:00,0,1,ftci-20240630_htm.xml,1,
0000950170-24-093910,1830043,BUMBLE INC.,7370,US,TX,AUSTIN,78756,1105 WEST 41ST STREET,,512-696-1409,US,TX,AUSTIN,78756,1105 WEST 41ST STREET,,,,853604367,,,1-LAF,0,1231,10-Q,20240630,2024,Q2,20240808,2024-08-08 16:06:00,0,1,bmbl-20240630_htm.xml,1,
0001104659-24-087273,1604821,"NATERA, INC.",8071,US,TX,AUSTIN,78753,13011 MCCALLEN PASS,BUILDING A SUITE 100,650-249-9090,US,TX,AUSTIN,78753,13011 MCCALLEN PASS,BUILDING A SUITE 100,US,DE,10894487,,,1-LAF,0,1231,8-K,20240731,,,20240808,2024-08-08 16:11:00,0,0,tm2420614d1_8k_htm.xml,1,
0001133228-24-007546,1558372,YCG FUNDS,,US,TX,AUSTIN,78738,"3207 RANCH ROAD 620 SOUTH, SUITE 200",,512-505-2347,US,TX,AUSTIN,78738,"3207 RANCH ROAD 620 SOUTH, SUITE 200",,,,0,,,,0,,N-CSRS,20240531,,,20240808,2024-08-08 12:35:00,0,1,ycgf-html8512_ncsrs_htm.xml,1,
0001171843-24-004561,1069530,CASSAVA SCIENCES INC,2834,US,TX,AUSTIN,78731,6801 N CAPITAL OF TEXAS HIGHWAY,BUILDING 1; SUITE 300,512-501-2444,US,TX,AUSTIN,78731,6801 N CAPITAL OF TEXAS HIGHWAY,BUILDING 1; SUITE 300,US,DE,911911336,PAIN THERAPEUTICS INC,20000309,1-LAF,0,1231,8-K,20240731,,,20240808,2024-08-08 8:13:00,1,0,f8k_080824_htm.xml,1,
0001386278-24-000041,1386278,GREEN DOT CORP,6199,US,TX,AUSTIN,78701,114 W 7TH STREET SUITE 240,,6267652000,US,OH,CINCINNATI,45241,"4675 CORNELL ROAD, SUITE 280",,US,DE,0,,,1-LAF,0,1231,8-K,20240731,,,20240808,2024-08-08 16:27:00,0,0,gdot-20240808_htm.xml,1,
0001410578-24-001222,1859686,SILVERBOX CORP III,6770,US,TX,AUSTIN,78746,1250 S. CAPITAL OF TEXAS HIGHWAY,"BUILDING 2, SUITE 285",512-575-3637,US,TX,AUSTIN,78746,1250 S. CAPITAL OF TEXAS HIGHWAY,"BUILDING 2, SUITE 285",,,862754279,SILVERBOX ENGAGED CORP II,20210429,4-NON,0,1231,10-Q,20240630,2024,Q2,20240808,2024-08-08 16:08:00,0,1,sbxc-20240630x10q_htm.xml,1,
0001437749-24-025611,1069530,CASSAVA SCIENCES INC,2834,US,TX,AUSTIN,78731,6801 N CAPITAL OF TEXAS HIGHWAY,BUILDING 1; SUITE 300,512-501-2444,US,TX,AUSTIN,78731,6801 N CAPITAL OF TEXAS HIGHWAY,BUILDING 1; SUITE 300,US,DE,911911336,PAIN THERAPEUTICS INC,20000309,1-LAF,0,1231,10-Q,20240630,2024,Q2,20240808,2024-08-08 17:13:00,0,1,sava20240630_10q_htm.xml,1,
0001493152-24-030780,1836100,GOAL ACQUISITIONS CORP.,6770,US,TX,AUSTIN,78738,13001 W. HWY 71,SUITE 201,512-287-1871,US,TX,AUSTIN,78738,13001 W. HWY 71,SUITE 201,US,DE,853660880,,,4-NON,0,1231,8-K,20240731,,,20240808,2024-08-08 16:16:00,0,0,form8-k_htm.xml,1,
0001625641-24-000120,1625641,"CS DISCO, INC.",7372,US,TX,AUSTIN,78701,111 CONGRESS AVE,SUITE 900,713-231-9100,US,TX,AUSTIN,78701,111 CONGRESS AVE,SUITE 900,US,DE,464254444,,,2-ACC,0,1231,8-K,20240731,,,20240808,2024-08-08 16:16:00,0,0,law-20240808_htm.xml,1,
0001625641-24-000122,1625641,"CS DISCO, INC.",7372,US,TX,AUSTIN,78701,111 CONGRESS AVE,SUITE 900,713-231-9100,US,TX,AUSTIN,78701,111 CONGRESS AVE,SUITE 900,US,DE,464254444,,,2-ACC,0,1231,10-Q,20240630,2024,Q2,20240808,2024-08-08 17:06:00,0,1,law-20240630_htm.xml,1,
0001670592-24-000033,1670592,"YETI HOLDINGS, INC.",3949,US,TX,AUSTIN,78735,7601 SOUTHWEST PARKWAY,,(512) 394-9384,US,TX,AUSTIN,78735,7601 SOUTHWEST PARKWAY,,US,DE,455297111,,,1-LAF,0,1231,8-K,20240731,,,20240808,2024-08-08 6:09:00,0,0,yeti-20240808_htm.xml,1,
0001670592-24-000034,1670592,"YETI HOLDINGS, INC.",3949,US,TX,AUSTIN,78735,7601 SOUTHWEST PARKWAY,,(512) 394-9384,US,TX,AUSTIN,78735,7601 SOUTHWEST PARKWAY,,US,DE,455297111,,,1-LAF,0,1231,10-Q,20240630,2024,Q2,20240808,2024-08-08 6:12:00,0,1,yeti-20240629_htm.xml,1,
0001740332-24-000051,1740332,"RESIDEO TECHNOLOGIES, INC.",5072,US,TX,AUSTIN,78702,901 E 6TH STREET,,512-726-3500,US,TX,AUSTIN,78702,901 E 6TH STREET,,US,DE,825318796,HH SPINCO INC.,20180510,1-LAF,0,1231,8-K,20240731,,,20240808,2024-08-08 17:27:00,0,0,rezi-20240807_htm.xml,1,
0001806201-24-000119,1806201,OPEN LENDING CORP,6141,US,TX,AUSTIN,78746,1501 S. MOPAC EXPRESSWAY,SUITE #450,512-892-0400,US,TX,AUSTIN,78746,1501 S. MOPAC EXPRESSWAY,SUITE #450,,,845031428,NEBULA PARENT CORP.,20200310,1-LAF,0,1231,8-K,20240731,,,20240808,2024-08-08 16:25:00,0,0,lpro-20240808_htm.xml,1,
0001104659-24-087480,350868,"ITERIS, INC.",3669,US,TX,AUSTIN,78746,1250 S. CAPITAL OF TEXAS HWY.,"BLDG. 1, SUITE 330",512-716-0808,US,TX,AUSTIN,78746,1250 S. CAPITAL OF TEXAS HWY.,"BLDG. 1, SUITE 330",US,DE,952588496,ITERIS HOLDINGS  INC,20031107,2-ACC,0,331,8-K,20240731,,,20240809,2024-08-09 6:05:00,0,0,tm2421283d1_8k_htm.xml,1,
0001386278-24-000051,1386278,GREEN DOT CORP,6199,US,TX,AUSTIN,78701,114 W 7TH STREET SUITE 240,,6267652000,US,OH,CINCINNATI,45241,"4675 CORNELL ROAD, SUITE 280",,US,DE,0,,,1-LAF,0,1231,10-Q,20240630,2024,Q2,20240809,2024-08-09 16:23:00,0,1,gdot-20240630_htm.xml,1,
0001437749-24-025654,1069530,CASSAVA SCIENCES INC,2834,US,TX,AUSTIN,78731,6801 N CAPITAL OF TEXAS HIGHWAY,BUILDING 1; SUITE 300,512-501-2444,US,TX,AUSTIN,78731,6801 N CAPITAL OF TEXAS HIGHWAY,BUILDING 1; SUITE 300,US,DE,911911336,PAIN THERAPEUTICS INC,20000309,1-LAF,0,1231,8-K/A,20240731,,,20240809,2024-08-09 8:23:00,1,0,sava20240809_8ka_htm.xml,1,
0001437749-24-025893,1595248,"GENPREX, INC.",2834,US,TX,AUSTIN,78712,"1601 TRINITY STREET, BLDG. B",SUITE 3.322,512-537-7997,US,TX,AUSTIN,78712,"1601 TRINITY STREET, BLDG. B",SUITE 3.322,US,TX,900772347,,,4-NON,0,1231,10-Q,20240630,2024,Q2,20240809,2024-08-09 16:31:00,0,1,gnpx20240630_10q_htm.xml,1,
0001524931-24-000086,1524931,"CHUY'S HOLDINGS, INC.",5812,US,TX,AUSTIN,78704,1623 TOOMEY ROAD,,512-473-2783,US,TX,AUSTIN,78704,1623 TOOMEY ROAD,,US,DE,205717694,,,1-LAF,0,1231,10-Q,20240630,2024,Q2,20240809,2024-08-09 16:02:00,0,1,chuy-20240630_htm.xml,1,
0001558370-24-011666,1604821,"NATERA, INC.",8071,US,TX,AUSTIN,78753,13011 MCCALLEN PASS,BUILDING A SUITE 100,650-249-9090,US,TX,AUSTIN,78753,13011 MCCALLEN PASS,BUILDING A SUITE 100,US,DE,10894487,,,1-LAF,0,1231,10-Q,20240630,2024,Q2,20240809,2024-08-08 20:28:00,0,1,ntra-20240630x10q_htm.xml,1,
0001740332-24-000053,1740332,"RESIDEO TECHNOLOGIES, INC.",5072,US,TX,AUSTIN,78702,901 E 6TH STREET,,512-726-3500,US,TX,AUSTIN,78702,901 E 6TH STREET,,US,DE,825318796,HH SPINCO INC.,20180510,1-LAF,0,1231,10-Q,20240630,2024,Q2,20240809,2024-08-08 17:32:00,0,1,rezi-20240629_htm.xml,1,
0001806201-24-000123,1806201,OPEN LENDING CORP,6141,US,TX,AUSTIN,78746,1501 S. MOPAC EXPRESSWAY,SUITE #450,512-892-0400,US,TX,AUSTIN,78746,1501 S. MOPAC EXPRESSWAY,SUITE #450,,,845031428,NEBULA PARENT CORP.,20200310,1-LAF,0,1231,10-Q,20240630,2024,Q2,20240809,2024-08-09 16:08:00,0,1,lpro-20240630_htm.xml,1,
0000950170-24-095403,1160308,SAVARA INC,2834,US,TX,AUSTIN,78746,6836 BEE CAVE ROAD,"BUILDING 3, SUITE 201",51285113796,US,TX,AUSTIN,78746,6836 BEE CAVE ROAD,"BUILDING 3, SUITE 201",US,DE,841318182,"MAST THERAPEUTICS, INC.",20130312,4-NON,0,1231,10-Q,20240630,2024,Q2,20240812,2024-08-12 16:05:00,0,1,svra-20240630_htm.xml,1,
0000950170-24-095439,926617,ASPIRA WOMEN'S HEALTH INC.,2835,US,TX,AUSTIN,78738,12117 BEE CAVES ROAD BUILDING THREE,SUITE 100,512-519-0400,US,TX,AUSTIN,78738,12117 BEE CAVES ROAD BUILDING THREE,SUITE 100,US,DE,330595156,"VERMILLION, INC.",20070824,4-NON,0,1231,8-K,20240731,,,20240812,2024-08-12 16:12:00,0,0,awh-20240812_htm.xml,1,
0001171843-24-004689,1626878,XBIOTECH INC.,2834,US,TX,AUSTIN,78744,5217 WINNEBAGO LANE,,512-386-2900,US,TX,AUSTIN,78744,5217 WINNEBAGO LANE,,CA,BC,0,,,4-NON,0,1231,10-Q,20240630,2024,Q2,20240812,2024-08-12 14:39:00,0,1,xbit20240630_10q_htm.xml,1,
0000885508-24-000057,885508,STRATUS PROPERTIES INC,6552,US,TX,AUSTIN,78701,212 LAVACA STREET,SUITE 300,5124785788,US,TX,AUSTIN,78701,212 LAVACA STREET,SUITE 300,US,DE,721211572,FM PROPERTIES INC,19930328,4-NON,0,1231,8-K,20240731,,,20240813,2024-08-13 8:32:00,0,0,strs-20240813_htm.xml,1,
0000885508-24-000059,885508,STRATUS PROPERTIES INC,6552,US,TX,AUSTIN,78701,212 LAVACA STREET,SUITE 300,5124785788,US,TX,AUSTIN,78701,212 LAVACA STREET,SUITE 300,US,DE,721211572,FM PROPERTIES INC,19930328,4-NON,0,1231,10-Q,20240630,2024,Q2,20240813,2024-08-13 16:37:00,0,1,strs-20240630_htm.xml,1,
0000950170-24-096220,926617,ASPIRA WOMEN'S HEALTH INC.,2835,US,TX,AUSTIN,78738,12117 BEE CAVES ROAD BUILDING THREE,SUITE 100,512-519-0400,US,TX,AUSTIN,78738,12117 BEE CAVES ROAD BUILDING THREE,SUITE 100,US,DE,330595156,"VERMILLION, INC.",20070824,4-NON,0,1231,10-Q,20240630,2024,Q2,20240813,2024-08-13 16:13:00,0,1,awh-20240630_htm.xml,1,
0001193125-24-199833,1183765,"MOLECULAR TEMPLATES, INC.",2834,US,TX,AUSTIN,78729,9301 AMBERGLEN BLVD,SUITE 100,512 896 1555,US,TX,AUSTIN,78729,9301 AMBERGLEN BLVD,SUITE 100,US,DE,943409596,THRESHOLD PHARMACEUTICALS INC,20020828,4-NON,0,1231,DEF 14A,20240930,,,20240813,2024-08-13 16:43:00,0,0,d781460ddef14a_htm.xml,1,
0001437749-24-026166,1595248,"GENPREX, INC.",2834,US,TX,AUSTIN,78712,"1601 TRINITY STREET, BLDG. B",SUITE 3.322,512-537-7997,US,TX,AUSTIN,78712,"1601 TRINITY STREET, BLDG. B",SUITE 3.322,US,TX,900772347,,,4-NON,0,1231,8-K,20240731,,,20240813,2024-08-13 8:38:00,0,0,gnpx20240803_8k_htm.xml,1,
0000950170-24-097001,1095981,"PLUS THERAPEUTICS, INC.",3841,US,TX,AUSTIN,78756,4200 MARATHON BLVD.,SUITE 200,737.255.7194,US,TX,AUSTIN,78756,4200 MARATHON BLVD.,SUITE 200,US,DE,330827593,"CYTORI THERAPEUTICS, INC.",20050712,4-NON,0,1231,8-K,20240731,,,20240814,2024-08-14 16:09:00,0,0,pstv-20240814_htm.xml,1,
0000950170-24-097079,1785056,"INTERACTIVE STRENGTH, INC.",3600,US,TX,AUSTIN,78701,1005 CONGRESS AVENUE,SUITE 925,3106978655,US,TX,AUSTIN,78701,1005 CONGRESS AVENUE,SUITE 925,US,DE,821432916,,,4-NON,0,1231,8-K,20240731,,,20240814,2024-08-14 16:29:00,0,0,trnr-20240814_htm.xml,1,
0000950170-24-097091,1095981,"PLUS THERAPEUTICS, INC.",3841,US,TX,AUSTIN,78756,4200 MARATHON BLVD.,SUITE 200,737.255.7194,US,TX,AUSTIN,78756,4200 MARATHON BLVD.,SUITE 200,US,DE,330827593,"CYTORI THERAPEUTICS, INC.",20050712,4-NON,0,1231,10-Q,20240630,2024,Q2,20240814,2024-08-14 16:31:00,0,1,pstv-20240630_htm.xml,1,
0000950170-24-097095,1780312,"AST SPACEMOBILE, INC.",4899,US,TX,AUSTIN,78730,6500 RIVERPLACE BOULEVARD,,9179694834,US,TX,AUSTIN,78730,6500 RIVERPLACE BOULEVARD,,US,DE,0,NEW PROVIDENCE ACQUISITION CORP.,20190620,4-NON,0,1231,8-K,20240731,,,20240814,2024-08-14 16:34:00,0,0,asts-20240814_htm.xml,1,
0000950170-24-097099,1780312,"AST SPACEMOBILE, INC.",4899,US,TX,AUSTIN,78730,6500 RIVERPLACE BOULEVARD,,9179694834,US,TX,AUSTIN,78730,6500 RIVERPLACE BOULEVARD,,US,DE,0,NEW PROVIDENCE ACQUISITION CORP.,20190620,4-NON,0,1231,10-Q,20240630,2024,Q2,20240814,2024-08-14 16:36:00,0,1,asts-20240630_htm.xml,1,
0000950170-24-097199,1420565,"AILERON THERAPEUTICS, INC.",2834,US,TX,AUSTIN,78758,12407 N. MOPAC EXPY.,SUITE 250 #390,7378021989,US,TX,AUSTIN,78758,12407 N. MOPAC EXPY.,SUITE 250 #390,,,134196017,AILERON THERAPEUTICS INC,20071207,4-NON,0,1231,10-Q,20240630,2024,Q2,20240814,2024-08-14 17:13:00,0,1,alrn-20240630_htm.xml,1,
0000950170-24-097225,1785056,"INTERACTIVE STRENGTH, INC.",3600,US,TX,AUSTIN,78701,1005 CONGRESS AVENUE,SUITE 925,3106978655,US,TX,AUSTIN,78701,1005 CONGRESS AVENUE,SUITE 925,US,DE,821432916,,,4-NON,0,1231,10-Q,20240630,2024,Q2,20240814,2024-08-14 17:22:00,0,1,trnr-20240630_htm.xml,1,
0001171843-24-004792,1183765,"MOLECULAR TEMPLATES, INC.",2834,US,TX,AUSTIN,78729,9301 AMBERGLEN BLVD,SUITE 100,512 896 1555,US,TX,AUSTIN,78729,9301 AMBERGLEN BLVD,SUITE 100,US,DE,943409596,THRESHOLD PHARMACEUTICALS INC,20020828,4-NON,0,1231,8-K,20240731,,,20240814,2024-08-14 16:26:00,0,0,f8k_081424_htm.xml,1,
0001185185-24-000795,1560452,TEXAS REPUBLIC CAPITAL CORP,6311,US,TX,AUSTIN,78738,13215 BEE CAVES PARKWAY,,5123300099,US,TX,AUSTIN,78738,13215 BEE CAVES PARKWAY,,US,TX,455311713,,,4-NON,0,1231,10-Q,20240630,2024,Q2,20240814,2024-08-14 9:24:00,0,1,trcc20240630_10q_htm.xml,1,
0001193125-24-200574,1634452,AB PRIVATE CREDIT INVESTORS CORP,,US,TX,AUSTIN,78701,405 COLORADO STREET,SUITE 1500,(512) 721-2900,US,TX,AUSTIN,78701,405 COLORADO STREET,SUITE 1500,US,MD,0,AB PRIVATE CREDIT CORP,20150219,4-NON,0,1231,10-Q,20240630,2024,Q2,20240814,2024-08-14 15:31:00,0,1,d645076d10q_htm.xml,1,
0001193125-24-200739,1420565,"AILERON THERAPEUTICS, INC.",2834,US,TX,AUSTIN,78758,12407 N. MOPAC EXPY.,SUITE 250 #390,7378021989,US,TX,AUSTIN,78758,12407 N. MOPAC EXPY.,SUITE 250 #390,,,134196017,AILERON THERAPEUTICS INC,20071207,4-NON,0,1231,8-K,20240731,,,20240814,2024-08-14 17:24:00,0,0,d882513d8k_htm.xml,1,
0001213900-24-068930,1914023,ACRI CAPITAL ACQUISITION CORP,6770,US,TX,AUSTIN,78729,13284 POND SPRING RD,STE 405,5126661277,US,TX,AUSTIN,78729,13284 POND SPRING RD,STE 405,US,DE,874328187,,,4-NON,0,1231,10-Q,20240630,2024,Q2,20240814,2024-08-14 15:47:00,0,1,ea0210391-10q_acri_htm.xml,1,
0001213900-24-068964,1733413,"TFF PHARMACEUTICALS, INC.",2834,US,TX,AUSTIN,78746,"2600 VIA FORTUNA, SUITE 360",,737-802-1973,US,TX,AUSTIN,78746,"2600 VIA FORTUNA, SUITE 360",,US,DE,824344737,,,4-NON,0,1231,10-Q,20240630,2024,Q2,20240814,2024-08-14 16:01:00,0,1,ea0210571-10q_tffpharma_htm.xml,1,
0001213900-24-068991,1733413,"TFF PHARMACEUTICALS, INC.",2834,US,TX,AUSTIN,78746,"2600 VIA FORTUNA, SUITE 360",,737-802-1973,US,TX,AUSTIN,78746,"2600 VIA FORTUNA, SUITE 360",,US,DE,824344737,,,4-NON,0,1231,8-K,20240731,,,20240814,2024-08-14 16:05:00,0,0,ea0211390-8k_tffpharma_htm.xml,1,
0001213900-24-069011,1837929,NEW PROVIDENCE ACQUISITION CORP. II,6770,US,TX,AUSTIN,78730,6500 RIVERPLACE BOULEVARD,,917-969-4834,US,TX,AUSTIN,78730,6500 RIVERPLACE BOULEVARD,,US,DE,0,,,4-NON,0,1231,10-Q,20240630,2024,Q2,20240814,2024-08-14 16:11:00,0,1,ea0211074-10q_newpro2_htm.xml,1,
0001437749-24-026595,1507957,IDEAL POWER INC.,3674,US,TX,AUSTIN,78735,5508 HIGHWAY 290 WEST,SUITE 120,512-264-1542,US,TX,AUSTIN,78735,5508 HIGHWAY 290 WEST,SUITE 120,US,DE,141999058,"IDEAL POWER CONVERTERS, INC.",20101215,4-NON,0,1231,8-K,20240731,,,20240814,2024-08-14 9:25:00,0,0,ipwr20240813_8k_htm.xml,1,
0001437749-24-026596,1507957,IDEAL POWER INC.,3674,US,TX,AUSTIN,78735,5508 HIGHWAY 290 WEST,SUITE 120,512-264-1542,US,TX,AUSTIN,78735,5508 HIGHWAY 290 WEST,SUITE 120,US,DE,141999058,"IDEAL POWER CONVERTERS, INC.",20101215,4-NON,0,1231,10-Q,20240630,2024,Q2,20240814,2024-08-14 9:26:00,0,1,ipwr20240630_10q_htm.xml,1,
0001477932-24-004870,1682265,"RELIANT HOLDINGS, INC.",1700,US,TX,AUSTIN,78750,12343 HYMEADOW DRIVE,SUITE 3-A,512-917-2930,US,TX,AUSTIN,78750,12343 HYMEADOW DRIVE,SUITE 3-A,US,NV,472200506,,,4-NON,0,1231,10-Q,20240630,2024,Q2,20240814,2024-08-14 17:28:00,0,1,reliant_10q_htm.xml,1,
0001558370-24-012257,1183765,"MOLECULAR TEMPLATES, INC.",2834,US,TX,AUSTIN,78729,9301 AMBERGLEN BLVD,SUITE 100,512 896 1555,US,TX,AUSTIN,78729,9301 AMBERGLEN BLVD,SUITE 100,US,DE,943409596,THRESHOLD PHARMACEUTICALS INC,20020828,4-NON,0,1231,10-Q,20240630,2024,Q2,20240814,2024-08-14 16:37:00,0,1,mtem-20240630x10q_htm.xml,1,
0001828852-24-000121,1828852,"MONDEE HOLDINGS, INC.",4700,US,TX,AUSTIN,78750,"10800 PECAN PARK BLVD, SUITE 400",,(866) 855-9630,US,TX,AUSTIN,78750,"10800 PECAN PARK BLVD, SUITE 400",,,,883292448,ITHAX ACQUISITION CORP.,20201019,2-ACC,0,1231,8-K,20240731,,,20240814,2024-08-14 7:07:00,0,0,mond-20240814_htm.xml,1,
0001828852-24-000123,1828852,"MONDEE HOLDINGS, INC.",4700,US,TX,AUSTIN,78750,"10800 PECAN PARK BLVD, SUITE 400",,(866) 855-9630,US,TX,AUSTIN,78750,"10800 PECAN PARK BLVD, SUITE 400",,,,883292448,ITHAX ACQUISITION CORP.,20201019,2-ACC,0,1231,10-Q,20240630,2024,Q2,20240814,2024-08-14 17:08:00,0,1,mond-20240630_htm.xml,1,
0000950170-24-097368,1828161,"FTC SOLAR, INC.",3674,US,TX,AUSTIN,78759,"9020 N CAPITAL OF TEXAS HWY, SUITE I-260",,(907) 312-0717,US,TX,AUSTIN,78759,"9020 N CAPITAL OF TEXAS HWY, SUITE I-260",,US,DE,814816270,,,2-ACC,0,1231,8-K,20240731,,,20240815,2024-08-15 7:50:00,0,0,ftci-20240815_htm.xml,1,
0001193125-24-201372,1095981,"PLUS THERAPEUTICS, INC.",3841,US,TX,AUSTIN,78756,4200 MARATHON BLVD.,SUITE 200,737.255.7194,US,TX,AUSTIN,78756,4200 MARATHON BLVD.,SUITE 200,US,DE,330827593,"CYTORI THERAPEUTICS, INC.",20050712,4-NON,0,1231,8-K,20240731,,,20240815,2024-08-15 16:51:00,0,0,d864499d8k_htm.xml,1,
0000950170-24-098116,1828161,"FTC SOLAR, INC.",3674,US,TX,AUSTIN,78759,"9020 N CAPITAL OF TEXAS HWY, SUITE I-260",,(907) 312-0717,US,TX,AUSTIN,78759,"9020 N CAPITAL OF TEXAS HWY, SUITE I-260",,US,DE,814816270,,,2-ACC,0,1231,8-K,20240831,,,20240816,2024-08-16 16:46:00,0,0,ftci-20240816_htm.xml,1,
0000885508-24-000061,885508,STRATUS PROPERTIES INC,6552,US,TX,AUSTIN,78701,212 LAVACA STREET,SUITE 300,5124785788,US,TX,AUSTIN,78701,212 LAVACA STREET,SUITE 300,US,DE,721211572,FM PROPERTIES INC,19930328,4-NON,0,1231,8-K,20240831,,,20240819,2024-08-19 16:47:00,0,0,strs-20240819_htm.xml,1,
0001104659-24-090847,2015947,SILVERBOX CORP IV,6770,US,TX,AUSTIN,78746,1250 S. CAPITAL OF TEXAS HIGHWAY,,512-575-3637,US,TX,AUSTIN,78746,1250 S. CAPITAL OF TEXAS HIGHWAY,,,,862754279,,,,0,1231,8-K,20240731,,,20240819,2024-08-19 16:15:00,0,0,tm248249d16_8k_htm.xml,1,
0001493152-24-033069,1657045,NEXT-CHEMX CORPORATION.,2890,US,TX,AUSTIN,78746,901 MOPAC EXPRESSWAY SOUTH BUILDING 1,SUITE 300,512-663-2690,US,TX,AUSTIN,78746,901 MOPAC EXPRESSWAY SOUTH BUILDING 1,SUITE 300,US,NV,320446353,"ALLYME GROUP, INC./NV",20181227,4-NON,0,1231,10-Q,20240630,2024,Q2,20240819,2024-08-19 16:01:00,0,1,form-10q_htm.xml,1,
0001628280-24-037702,1839341,"CORE SCIENTIFIC, INC./TX",6199,US,TX,AUSTIN,78701,"106 EAST 6TH STREET, SUITE 900-145",,(425) 998-5300,US,TX,AUSTIN,78701,"106 EAST 6TH STREET, SUITE 900-145",,US,DE,0,POWER & DIGITAL INFRASTRUCTURE ACQUISITION CORP.,20210106,2-ACC,0,1231,8-K,20240731,,,20240819,2024-08-19 16:16:00,0,0,core-20240813_htm.xml,1,
0001193125-24-203232,1579733,"VITAL FARMS, INC.",2000,US,TX,AUSTIN,78704,3601 SOUTH CONGRESS AVENUE,SUITE C100,(877) 455-3063,US,TX,AUSTIN,78704,3601 SOUTH CONGRESS AVENUE,SUITE C100,US,DE,270496985,,,2-ACC,0,1231,8-K,20240731,,,20240820,2024-08-20 8:01:00,0,0,d883522d8k_htm.xml,1,
0001828852-24-000129,1828852,"MONDEE HOLDINGS, INC.",4700,US,TX,AUSTIN,78750,"10800 PECAN PARK BLVD, SUITE 400",,(866) 855-9630,US,TX,AUSTIN,78750,"10800 PECAN PARK BLVD, SUITE 400",,,,883292448,ITHAX ACQUISITION CORP.,20201019,2-ACC,0,1231,8-K,20240731,,,20240820,2024-08-20 9:11:00,0,0,mond-20240814_htm.xml,1,
0001079973-24-001293,700764,"VICTORY CLEAN ENERGY, INC.",1311,US,TX,AUSTIN,78738,"14425 FALCON HEAD BLVD., BLDG E",SUITE 100,512-607-5558,US,TX,AUSTIN,78738,"14425 FALCON HEAD BLVD., BLDG E",SUITE 100,US,NV,870564472,"VICTORY OILFIELD TECH, INC.",20180606,4-NON,0,1231,8-K,20240831,,,20240821,2024-08-21 16:15:00,0,0,vyey_8k_htm.xml,1,
0001193125-24-204425,1420565,"AILERON THERAPEUTICS, INC.",2834,US,TX,AUSTIN,78758,12407 N. MOPAC EXPY.,SUITE 250 #390,7378021989,US,TX,AUSTIN,78758,12407 N. MOPAC EXPY.,SUITE 250 #390,,,134196017,AILERON THERAPEUTICS INC,20071207,4-NON,0,1231,8-K,20240831,,,20240821,2024-08-21 16:17:00,0,0,d862681d8k_htm.xml,1,
0000950170-24-100172,1785056,"INTERACTIVE STRENGTH, INC.",3600,US,TX,AUSTIN,78701,1005 CONGRESS AVENUE,SUITE 925,3106978655,US,TX,AUSTIN,78701,1005 CONGRESS AVENUE,SUITE 925,US,DE,821432916,,,4-NON,0,1231,8-K,20240831,,,20240823,2024-08-23 16:06:00,0,0,trnr-20240820_htm.xml,1,
0001104659-24-092466,2015947,SILVERBOX CORP IV,6770,US,TX,AUSTIN,78746,1250 S. CAPITAL OF TEXAS HIGHWAY,,512-575-3637,US,TX,AUSTIN,78746,1250 S. CAPITAL OF TEXAS HIGHWAY,,,,862754279,,,,0,1231,8-K,20240831,,,20240823,2024-08-23 16:31:00,0,0,tm2422229d1_8k_htm.xml,1,
0001104659-24-092468,1859686,SILVERBOX CORP III,6770,US,TX,AUSTIN,78746,1250 S. CAPITAL OF TEXAS HIGHWAY,"BUILDING 2, SUITE 285",512-575-3637,US,TX,AUSTIN,78746,1250 S. CAPITAL OF TEXAS HIGHWAY,"BUILDING 2, SUITE 285",,,862754279,SILVERBOX ENGAGED CORP II,20210429,4-NON,0,1231,8-K,20240831,,,20240823,2024-08-23 16:32:00,0,0,tm2422415d2_8k_htm.xml,1,
0000950170-24-100579,1984060,ATLAS ENERGY SOLUTIONS INC.,1311,US,TX,AUSTIN,78730,5918 WEST COURTYARD DRIVE,SUITE 500,5122201200,US,TX,AUSTIN,78730,5918 WEST COURTYARD DRIVE,SUITE 500,US,DE,932154509,NEW ATLAS HOLDCO INC.,20230703,4-NON,0,1231,8-K,20240831,,,20240826,2024-08-26 16:45:00,0,0,aesi-20240822_htm.xml,1,
0001739942-24-000111,1739942,SOLARWINDS CORP,7372,US,TX,AUSTIN,78735,"7171 SOUTHWEST PKWY., BLDG. 400",,5126829300,US,TX,AUSTIN,78735,"7171 SOUTHWEST PKWY., BLDG. 400",,US,DE,810753267,"SOLARWINDS PARENT, INC.",20180508,2-ACC,0,1231,8-K,20240831,,,20240826,2024-08-26 8:45:00,0,0,swi-20240822_htm.xml,1,
0001213900-24-073025,1914023,ACRI CAPITAL ACQUISITION CORP,6770,US,TX,AUSTIN,78729,13284 POND SPRING RD,STE 405,5126661277,US,TX,AUSTIN,78729,13284 POND SPRING RD,STE 405,US,DE,874328187,,,4-NON,0,1231,8-K,20240831,,,20240827,2024-08-27 17:01:00,0,0,ea021255801-8k_acricapital_htm.xml,1,
0001628280-24-038529,317788,"DIGITAL TURBINE, INC.",6794,US,TX,AUSTIN,78701,111 NUECES STREET,,(512) 387-7717,US,TX,AUSTIN,78701,111 NUECES STREET,,US,DE,222267658,"MANDALAY DIGITAL GROUP, INC.",20120207,1-LAF,0,331,8-K,20240831,,,20240827,2024-08-27 16:04:00,0,0,apps-20240827_htm.xml,1,
0001493152-24-034117,1780312,"AST SPACEMOBILE, INC.",4899,US,TX,AUSTIN,78730,6500 RIVERPLACE BOULEVARD,,9179694834,US,TX,AUSTIN,78730,6500 RIVERPLACE BOULEVARD,,US,DE,0,NEW PROVIDENCE ACQUISITION CORP.,20190620,4-NON,0,1231,8-K,20240831,,,20240828,2024-08-28 8:05:00,0,0,form8-k_htm.xml,1,
0001535527-24-000017,1535527,"CROWDSTRIKE HOLDINGS, INC.",7372,US,TX,AUSTIN,78701,206 E. 9TH STREET,SUITE 1400,888-512-8906,US,TX,AUSTIN,78701,206 E. 9TH STREET,SUITE 1400,US,DE,453788918,,,1-LAF,0,131,8-K,20240831,,,20240828,2024-08-28 16:07:00,0,0,crwd-20240828_htm.xml,1,
0001535527-24-000020,1535527,"CROWDSTRIKE HOLDINGS, INC.",7372,US,TX,AUSTIN,78701,206 E. 9TH STREET,SUITE 1400,888-512-8906,US,TX,AUSTIN,78701,206 E. 9TH STREET,SUITE 1400,US,DE,453788918,,,1-LAF,0,131,10-Q,20240731,2025,Q2,20240829,2024-08-28 21:55:00,0,1,crwd-20240731_htm.xml,1,
0001104659-24-095231,1859686,SILVERBOX CORP III,6770,US,TX,AUSTIN,78746,1250 S. CAPITAL OF TEXAS HIGHWAY,"BUILDING 2, SUITE 285",512-575-3637,US,TX,AUSTIN,78746,1250 S. CAPITAL OF TEXAS HIGHWAY,"BUILDING 2, SUITE 285",,,862754279,SILVERBOX ENGAGED CORP II,20210429,4-NON,0,1231,8-K,20240831,,,20240830,2024-08-30 8:00:00,0,0,tm2422958d1_8k_htm.xml,1,
0001437749-24-028339,1595248,"GENPREX, INC.",2834,US,TX,AUSTIN,78712,"1601 TRINITY STREET, BLDG. B",SUITE 3.322,512-537-7997,US,TX,AUSTIN,78712,"1601 TRINITY STREET, BLDG. B",SUITE 3.322,US,TX,900772347,,,4-NON,0,1231,8-K,20240831,,,20240904,2024-09-04 9:31:00,0,0,gnpx20240703_8k_htm.xml,1,
0001493152-24-034970,1572565,INDOOR HARVEST CORP,3590,US,TX,AUSTIN,78739,7401 W. SLAUGHTER LANE #5078,,(346) 310-3427,US,TX,AUSTIN,78739,7401 W. SLAUGHTER LANE #5078,,US,TX,455577364,,,4-NON,0,1231,10-K/A,20231231,2023,FY,20240904,2024-09-04 14:50:00,0,1,form10-ka_htm.xml,1,
0001493152-24-035008,1780312,"AST SPACEMOBILE, INC.",4899,US,TX,AUSTIN,78730,6500 RIVERPLACE BOULEVARD,,9179694834,US,TX,AUSTIN,78730,6500 RIVERPLACE BOULEVARD,,US,DE,0,NEW PROVIDENCE ACQUISITION CORP.,20190620,4-NON,0,1231,8-K,20240831,,,20240904,2024-09-04 18:25:00,0,0,form8-k_htm.xml,1,
0000950170-24-104029,1785056,"INTERACTIVE STRENGTH, INC.",3600,US,TX,AUSTIN,78701,1005 CONGRESS AVENUE,SUITE 925,3106978655,US,TX,AUSTIN,78701,1005 CONGRESS AVENUE,SUITE 925,US,DE,821432916,,,4-NON,0,1231,8-K,20240831,,,20240905,2024-09-05 16:24:00,0,0,trnr-20240830_htm.xml,1,
0001193125-24-213775,1780312,"AST SPACEMOBILE, INC.",4899,US,TX,AUSTIN,78730,6500 RIVERPLACE BOULEVARD,,9179694834,US,TX,AUSTIN,78730,6500 RIVERPLACE BOULEVARD,,US,DE,0,NEW PROVIDENCE ACQUISITION CORP.,20190620,4-NON,0,1231,8-K,20240831,,,20240905,2024-09-05 9:35:00,0,0,d651229d8k_htm.xml,1,
0001628280-24-039540,1839341,"CORE SCIENTIFIC, INC./TX",6199,US,TX,AUSTIN,78701,"106 EAST 6TH STREET, SUITE 900-145",,(425) 998-5300,US,TX,AUSTIN,78701,"106 EAST 6TH STREET, SUITE 900-145",,US,DE,0,POWER & DIGITAL INFRASTRUCTURE ACQUISITION CORP.,20210106,2-ACC,0,1231,8-K,20240831,,,20240905,2024-09-05 16:10:00,0,0,core-20240905_htm.xml,1,
0001999371-24-011429,1911129,"CROWDSTREET REIT I, INC.",,US,TX,AUSTIN,78701,98 SAN JACINTO BLVD,4TH FLOOR,971-803-3110,US,TX,AUSTIN,78701,98 SAN JACINTO BLVD,4TH FLOOR,US,DE,0,"CROWDSTREET PRIVATE EQUITY REIT I, INC.",20220214,,0,1231,N-CSRS,20240630,,,20240905,2024-09-05 16:28:00,0,0,crowdstreet-ncsrs_063024_htm.xml,1,
0001193125-24-214783,1634452,AB PRIVATE CREDIT INVESTORS CORP,,US,TX,AUSTIN,78701,405 COLORADO STREET,SUITE 1500,(512) 721-2900,US,TX,AUSTIN,78701,405 COLORADO STREET,SUITE 1500,US,MD,0,AB PRIVATE CREDIT CORP,20150219,4-NON,0,1231,8-K,20240831,,,20240906,2024-09-06 9:20:00,0,0,d831649d8k_htm.xml,1,
0001193125-24-215218,1095981,"PLUS THERAPEUTICS, INC.",3841,US,TX,AUSTIN,78756,4200 MARATHON BLVD.,SUITE 200,737.255.7194,US,TX,AUSTIN,78756,4200 MARATHON BLVD.,SUITE 200,US,DE,330827593,"CYTORI THERAPEUTICS, INC.",20050712,4-NON,0,1231,8-K,20240831,,,20240906,2024-09-06 16:47:00,0,0,d821033d8k_htm.xml,1,
0001386278-24-000071,1386278,GREEN DOT CORP,6199,US,TX,AUSTIN,78701,114 W 7TH STREET SUITE 240,,6267652000,US,OH,CINCINNATI,45241,"4675 CORNELL ROAD, SUITE 280",,US,DE,0,,,1-LAF,0,1231,8-K,20240831,,,20240906,2024-09-06 17:06:00,0,0,gdot-20240906_htm.xml,1,
0001628280-24-039711,1839341,"CORE SCIENTIFIC, INC./TX",6199,US,TX,AUSTIN,78701,"106 EAST 6TH STREET, SUITE 900-145",,(425) 998-5300,US,TX,AUSTIN,78701,"106 EAST 6TH STREET, SUITE 900-145",,US,DE,0,POWER & DIGITAL INFRASTRUCTURE ACQUISITION CORP.,20210106,2-ACC,0,1231,8-K,20240831,,,20240906,2024-09-06 16:34:00,0,0,core-20240906_htm.xml,1,
0000950170-24-104753,1341439,ORACLE CORP,7372,US,TX,AUSTIN,78741,2300 ORACLE WAY,,(737) 867-1000,US,TX,AUSTIN,78741,2300 ORACLE WAY,,,,542185193,OZARK HOLDING INC.,20051013,1-LAF,0,531,8-K,20240831,,,20240909,2024-09-09 16:18:00,0,0,orcl-20240909_htm.xml,1,
0001171843-24-005116,1069530,CASSAVA SCIENCES INC,2834,US,TX,AUSTIN,78731,6801 N CAPITAL OF TEXAS HIGHWAY,BUILDING 1; SUITE 300,512-501-2444,US,TX,AUSTIN,78731,6801 N CAPITAL OF TEXAS HIGHWAY,BUILDING 1; SUITE 300,US,DE,911911336,PAIN THERAPEUTICS INC,20000309,1-LAF,0,1231,8-K,20240831,,,20240909,2024-09-09 8:47:00,1,0,f8k_090924_htm.xml,1,
0001193125-24-215434,1297996,"DIGITAL REALTY TRUST, INC.",6798,US,TX,AUSTIN,78735,"5707 SOUTHWEST PARKWAY, BUILDING 1",SUITE 275,(737) 281-0101,US,TX,AUSTIN,78735,"5707 SOUTHWEST PARKWAY, BUILDING 1",SUITE 275,US,MD,260081711,"DIGITAL REALTY TRUST, INC.",20040722,1-LAF,0,1231,8-K,20240831,,,20240909,2024-09-09 6:05:00,0,0,d842941d8k_htm.xml,2,1494877
0001193125-24-215943,1297996,"DIGITAL REALTY TRUST, INC.",6798,US,TX,AUSTIN,78735,"5707 SOUTHWEST PARKWAY, BUILDING 1",SUITE 275,(737) 281-0101,US,TX,AUSTIN,78735,"5707 SOUTHWEST PARKWAY, BUILDING 1",SUITE 275,US,MD,260081711,"DIGITAL REALTY TRUST, INC.",20040722,1-LAF,0,1231,8-K,20240831,,,20240909,2024-09-09 16:36:00,0,0,d896673d8k_htm.xml,2,1494877
0000950170-24-104905,1341439,ORACLE CORP,7372,US,TX,AUSTIN,78741,2300 ORACLE WAY,,(737) 867-1000,US,TX,AUSTIN,78741,2300 ORACLE WAY,,,,542185193,OZARK HOLDING INC.,20051013,1-LAF,0,531,10-Q,20240831,2025,Q1,20240910,2024-09-10 6:05:00,0,1,orcl-20240831_htm.xml,1,
0000950170-24-105132,1785056,"INTERACTIVE STRENGTH, INC.",3600,US,TX,AUSTIN,78701,1005 CONGRESS AVENUE,SUITE 925,3106978655,US,TX,AUSTIN,78701,1005 CONGRESS AVENUE,SUITE 925,US,DE,821432916,,,4-NON,0,1231,8-K,20240831,,,20240910,2024-09-10 16:10:00,0,0,trnr-20240904_htm.xml,1,
0001493152-24-035665,1780312,"AST SPACEMOBILE, INC.",4899,US,TX,AUSTIN,78730,6500 RIVERPLACE BOULEVARD,,9179694834,US,TX,AUSTIN,78730,6500 RIVERPLACE BOULEVARD,,US,DE,0,NEW PROVIDENCE ACQUISITION CORP.,20190620,4-NON,0,1231,8-K,20240831,,,20240910,2024-09-10 17:23:00,0,0,form8-k_htm.xml,1,
0001377789-24-000036,1377789,"AVIAT NETWORKS, INC.",3663,US,TX,AUSTIN,78728,200 PARKER DRIVE,SUITE C100A,4089417100,US,TX,AUSTIN,78728,200 PARKER DRIVE,SUITE C100A,US,DE,205961564,AVIAT NETWORKS INC,20161109,2-ACC,0,630,8-K,20240831,,,20240911,2024-09-11 17:30:00,0,0,avnw-20240911_htm.xml,1,
0001493152-24-035867,1836100,GOAL ACQUISITIONS CORP.,6770,US,TX,AUSTIN,78738,13001 W. HWY 71,SUITE 201,512-287-1871,US,TX,AUSTIN,78738,13001 W. HWY 71,SUITE 201,US,DE,853660880,,,4-NON,0,1231,10-Q,20240630,2024,Q2,20240912,2024-09-11 18:24:00,0,1,form10-q_htm.xml,1,
0001806201-24-000128,1806201,OPEN LENDING CORP,6141,US,TX,AUSTIN,78746,1501 S. MOPAC EXPRESSWAY,SUITE #450,512-892-0400,US,TX,AUSTIN,78746,1501 S. MOPAC EXPRESSWAY,SUITE #450,,,845031428,NEBULA PARENT CORP.,20200310,1-LAF,0,1231,8-K,20240831,,,20240912,2024-09-12 16:49:00,0,0,lpro-20240911_htm.xml,1,
0000950170-24-106448,926617,ASPIRA WOMEN'S HEALTH INC.,2835,US,TX,AUSTIN,78738,12117 BEE CAVES ROAD BUILDING THREE,SUITE 100,512-519-0400,US,TX,AUSTIN,78738,12117 BEE CAVES ROAD BUILDING THREE,SUITE 100,US,DE,330595156,"VERMILLION, INC.",20070824,4-NON,0,1231,8-K,20240831,,,20240913,2024-09-13 17:10:00,0,0,awh-20240909_htm.xml,1,
0001193125-24-218873,1297996,"DIGITAL REALTY TRUST, INC.",6798,US,TX,AUSTIN,78735,"5707 SOUTHWEST PARKWAY, BUILDING 1",SUITE 275,(737) 281-0101,US,TX,AUSTIN,78735,"5707 SOUTHWEST PARKWAY, BUILDING 1",SUITE 275,US,MD,260081711,"DIGITAL REALTY TRUST, INC.",20040722,1-LAF,0,1231,8-K,20240831,,,20240913,2024-09-13 16:18:00,0,0,d855313d8k_htm.xml,2,1494877
0001213900-24-078551,1914023,ACRI CAPITAL ACQUISITION CORP,6770,US,TX,AUSTIN,78729,13284 POND SPRING RD,STE 405,5126661277,US,TX,AUSTIN,78729,13284 POND SPRING RD,STE 405,US,DE,874328187,,,4-NON,0,1231,8-K,20240831,,,20240913,2024-09-13 16:05:00,0,0,ea0214466-8k_acricap_htm.xml,1,
0001640334-24-001413,1680689,"NATURAL RESOURCE HOLDINGS, INC.",5960,US,TX,AUSTIN,78735,7500 RIALTO BOULEVARD OAK HILL,,4159685642,US,TX,AUSTIN,78735,7500 RIALTO BOULEVARD OAK HILL,,,,320500871,BOXXY INC.,20160725,4-NON,0,430,10-Q,20240731,2025,Q1,20240913,2024-09-13 10:45:00,0,1,boxxy_10q_htm.xml,1,
0000950170-24-107284,1785056,"INTERACTIVE STRENGTH, INC.",3600,US,TX,AUSTIN,78701,1005 CONGRESS AVENUE,SUITE 925,3106978655,US,TX,AUSTIN,78701,1005 CONGRESS AVENUE,SUITE 925,US,DE,821432916,,,4-NON,0,1231,8-K,20240831,,,20240917,2024-09-17 16:13:00,0,0,trnr-20240911_htm.xml,1,
0001437749-24-029380,1069530,CASSAVA SCIENCES INC,2834,US,TX,AUSTIN,78731,6801 N CAPITAL OF TEXAS HIGHWAY,BUILDING 1; SUITE 300,512-501-2444,US,TX,AUSTIN,78731,6801 N CAPITAL OF TEXAS HIGHWAY,BUILDING 1; SUITE 300,US,DE,911911336,PAIN THERAPEUTICS INC,20000309,1-LAF,0,1231,8-K,20240831,,,20240917,2024-09-17 16:22:00,1,0,sava20240917_8k_htm.xml,1,
0001477932-24-005803,1682265,"RELIANT HOLDINGS, INC.",1700,US,TX,AUSTIN,78750,12343 HYMEADOW DRIVE,SUITE 3-A,512-917-2930,US,TX,AUSTIN,78750,12343 HYMEADOW DRIVE,SUITE 3-A,US,NV,472200506,,,4-NON,0,1231,8-K,20240831,,,20240917,2024-09-17 17:28:00,0,0,relt_8k_htm.xml,1,
0001193125-24-221252,1634452,AB PRIVATE CREDIT INVESTORS CORP,,US,TX,AUSTIN,78701,405 COLORADO STREET,SUITE 1500,(512) 721-2900,US,TX,AUSTIN,78701,405 COLORADO STREET,SUITE 1500,US,MD,0,AB PRIVATE CREDIT CORP,20150219,4-NON,0,1231,8-K,20240930,,,20240918,2024-09-18 13:21:00,0,0,d896852d8k_htm.xml,1,
0000867773-24-000097,867773,SUNPOWER CORP,3674,US,TX,AUSTIN,78715,P.O. BOX 150369,,408-240-5500,US,TX,AUSTIN,78715,P.O. BOX 150369,,US,DE,943008969,,,1-LAF,0,1231,8-K,20240930,,,20240919,2024-09-19 17:05:00,0,0,spwr-20240918_htm.xml,1,
0001437749-24-029621,1001907,ASTROTECH CORP,3826,US,TX,AUSTIN,78758,2105 DONLEY DR. SUITE 100,,5124859530,US,TX,AUSTIN,78741,2028 E. BEN WHITE BLVD.,SUITE 240-9530,US,DE,911273737,ASTROTECH CORP WA,20090310,4-NON,0,630,8-K,20240930,,,20240919,2024-09-19 17:27:00,0,0,astc20240913_8k_htm.xml,1,
0001213900-24-080727,1837929,NEW PROVIDENCE ACQUISITION CORP. II,6770,US,TX,AUSTIN,78730,6500 RIVERPLACE BOULEVARD,,917-969-4834,US,TX,AUSTIN,78730,6500 RIVERPLACE BOULEVARD,,US,DE,0,,,4-NON,0,1231,8-K,20240930,,,20240920,2024-09-20 17:05:00,0,0,ea0215308-8k_newpro2_htm.xml,1,
0001437749-24-029650,1001907,ASTROTECH CORP,3826,US,TX,AUSTIN,78758,2105 DONLEY DR. SUITE 100,,5124859530,US,TX,AUSTIN,78741,2028 E. BEN WHITE BLVD.,SUITE 240-9530,US,DE,911273737,ASTROTECH CORP WA,20090310,4-NON,0,630,10-K,20240630,2024,FY,20240920,2024-09-20 8:46:00,0,1,astc20240630_10k_htm.xml,1,
0001104659-24-102119,2015947,SILVERBOX CORP IV,6770,US,TX,AUSTIN,78746,1250 S. CAPITAL OF TEXAS HIGHWAY,,512-575-3637,US,TX,AUSTIN,78746,1250 S. CAPITAL OF TEXAS HIGHWAY,,,,862754279,,,4-NON,0,1231,8-K,20240930,,,20240923,2024-09-23 17:21:00,0,0,tm2424552d1_8k_htm.xml,1,
0001193125-24-223732,1982701,AB PRIVATE LENDING FUND,,US,TX,AUSTIN,78701,405 COLORADO STREET,SUITE 1500,512-721-2900,US,TX,AUSTIN,78701,405 COLORADO STREET,SUITE 1500,US,DE,0,,,4-NON,0,1231,10-Q,20240630,2024,Q2,20240923,2024-09-23 16:38:00,0,1,d872687d10q_htm.xml,1,
0001410384-24-000189,1410384,"Q2 HOLDINGS, INC.",7372,US,TX,AUSTIN,78729,10355 PECAN PARK BOULEVARD,,1-833-444-3469,US,TX,Austin,78729,10355 PECAN PARK BOULEVARD,,,,202706637,"CBG HOLDINGS, INC.",20120103,1-LAF,0,1231,8-K,20240930,,,20240923,2024-09-23 8:56:00,0,0,qtwo-20240919_htm.xml,1,
0001410578-24-001613,2015947,SILVERBOX CORP IV,6770,US,TX,AUSTIN,78746,1250 S. CAPITAL OF TEXAS HIGHWAY,,512-575-3637,US,TX,AUSTIN,78746,1250 S. CAPITAL OF TEXAS HIGHWAY,,,,862754279,,,4-NON,0,1231,10-Q,20240630,2024,Q2,20240923,2024-09-23 16:07:00,0,1,sbxc-20240630x10q_htm.xml,1,
0001828852-24-000139,1828852,"MONDEE HOLDINGS, INC.",4700,US,TX,AUSTIN,78750,"10800 PECAN PARK BLVD, SUITE 400",,(866) 855-9630,US,TX,AUSTIN,78750,"10800 PECAN PARK BLVD, SUITE 400",,,,883292448,ITHAX ACQUISITION CORP.,20201019,2-ACC,0,1231,8-K,20240930,,,20240923,2024-09-23 16:09:00,0,0,mond-20240917_htm.xml,1,
0001140361-24-041757,350868,"ITERIS, INC.",3669,US,TX,AUSTIN,78746,1250 S. CAPITAL OF TEXAS HWY.,"BLDG. 1, SUITE 330",512-716-0808,US,TX,AUSTIN,78746,1250 S. CAPITAL OF TEXAS HWY.,"BLDG. 1, SUITE 330",US,DE,952588496,ITERIS HOLDINGS  INC,20031107,2-ACC,0,331,8-K,20240930,,,20240924,2024-09-24 17:23:00,0,0,ny20034699x3_8k_htm.xml,1,
0001333493-24-000149,1333493,"EHEALTH, INC.",6411,US,TX,AUSTIN,78717,"13620 RANCH ROAD 620 N, SUITE A250",,737-248-2340,US,TX,AUSTIN,78717,"13620 RANCH ROAD 620 N, SUITE A250",,US,DE,770470789,,,2-ACC,0,1231,8-K,20240930,,,20240924,2024-09-24 16:35:00,0,0,ehth-20240921_htm.xml,1,
0001193125-24-225478,1634452,AB PRIVATE CREDIT INVESTORS CORP,,US,TX,AUSTIN,78701,405 COLORADO STREET,SUITE 1500,(512) 721-2900,US,TX,AUSTIN,78701,405 COLORADO STREET,SUITE 1500,US,MD,0,AB PRIVATE CREDIT CORP,20150219,4-NON,0,1231,8-K,20240930,,,20240925,2024-09-25 9:34:00,0,0,d868458d8k_htm.xml,1,
0001193125-24-226139,1341439,ORACLE CORP,7372,US,TX,AUSTIN,78741,2300 ORACLE WAY,,(737) 867-1000,US,TX,AUSTIN,78741,2300 ORACLE WAY,,,,542185193,OZARK HOLDING INC.,20051013,1-LAF,0,531,DEF 14A,20241031,,,20240925,2024-09-25 17:00:00,0,0,d860928ddef14a_htm.xml,1,
0001489096-24-000156,1489096,"THERMON GROUP HOLDINGS, INC.",3620,US,TX,AUSTIN,78735,7171 SOUTHWEST PARKWAY,"BUILDING 300, SUITE 200",5126900600,US,TX,AUSTIN,78735,7171 SOUTHWEST PARKWAY,"BUILDING 300, SUITE 200",US,DE,272228185,,,1-LAF,0,331,8-K,20240930,,,20240925,2024-09-25 7:02:00,0,0,thr-20240919_htm.xml,1,
0001213900-24-082246,2013807,FOXX DEVELOPMENT HOLDINGS INC.,3576,US,TX,AUSTIN,78729,13284 POND SPRINGS RD,STE 405,512-666-1277,US,TX,AUSTIN,78729,13284 POND SPRINGS RD,STE 405,US,DE,0,ACRI CAPITAL MERGER SUB I INC.,20240229,,0,1231,8-K,20240930,,,20240926,2024-09-26 16:10:00,0,0,ea0215797-8k_foxxdev_htm.xml,1,
0001437749-24-030088,1595248,"GENPREX, INC.",2834,US,TX,AUSTIN,78712,"1601 TRINITY STREET, BLDG. B",SUITE 3.322,512-537-7997,US,TX,AUSTIN,78712,"1601 TRINITY STREET, BLDG. B",SUITE 3.322,US,TX,900772347,,,4-NON,0,1231,8-K,20240930,,,20240926,2024-09-26 17:16:00,0,0,gnpx20240920_8k_htm.xml,1,
0001640334-24-001453,1680689,"NATURAL RESOURCE HOLDINGS, INC.",5960,US,TX,AUSTIN,78735,7500 RIALTO BOULEVARD OAK HILL,,4159685642,US,TX,AUSTIN,78735,7500 RIALTO BOULEVARD OAK HILL,,,,320500871,BOXXY INC.,20160725,4-NON,0,430,10-K/A,20240430,2024,FY,20240926,2024-09-26 17:18:00,0,1,boxxy_10ka_htm.xml,1,
0001193125-24-227939,1183765,"MOLECULAR TEMPLATES, INC.",2834,US,TX,AUSTIN,78729,9301 AMBERGLEN BLVD,SUITE 100,512 896 1555,US,TX,AUSTIN,78729,9301 AMBERGLEN BLVD,SUITE 100,US,DE,943409596,THRESHOLD PHARMACEUTICALS INC,20020828,4-NON,0,1231,8-K,20240930,,,20240927,2024-09-27 16:02:00,0,0,d785452d8k_htm.xml,1,
0001193125-24-227971,1341439,ORACLE CORP,7372,US,TX,AUSTIN,78741,2300 ORACLE WAY,,(737) 867-1000,US,TX,AUSTIN,78741,2300 ORACLE WAY,,,,542185193,OZARK HOLDING INC.,20051013,1-LAF,0,531,8-K,20240930,,,20240927,2024-09-27 16:15:00,0,0,d832518d8k_htm.xml,1,
0001437749-24-030118,1069530,CASSAVA SCIENCES INC,2834,US,TX,AUSTIN,78731,6801 N CAPITAL OF TEXAS HIGHWAY,BUILDING 1; SUITE 300,512-501-2444,US,TX,AUSTIN,78731,6801 N CAPITAL OF TEXAS HIGHWAY,BUILDING 1; SUITE 300,US,DE,911911336,PAIN THERAPEUTICS INC,20000309,1-LAF,0,1231,8-K,20240930,,,20240927,2024-09-27 7:37:00,1,0,sava20240927_8k_htm.xml,1,
0001493152-24-038548,1657045,NEXT-CHEMX CORPORATION.,2890,US,TX,AUSTIN,78746,901 MOPAC EXPRESSWAY SOUTH BUILDING 1,SUITE 300,512-663-2690,US,TX,AUSTIN,78746,901 MOPAC EXPRESSWAY SOUTH BUILDING 1,SUITE 300,US,NV,320446353,"ALLYME GROUP, INC./NV",20181227,4-NON,0,1231,8-K,20240930,,,20240927,2024-09-27 16:32:00,0,0,form8-k_htm.xml,1,
0001193125-24-228400,1297996,"DIGITAL REALTY TRUST, INC.",6798,US,TX,AUSTIN,78735,"5707 SOUTHWEST PARKWAY, BUILDING 1",SUITE 275,(737) 281-0101,US,TX,AUSTIN,78735,"5707 SOUTHWEST PARKWAY, BUILDING 1",SUITE 275,US,MD,260081711,"DIGITAL REALTY TRUST, INC.",20040722,1-LAF,0,1231,8-K,20240930,,,20240930,2024-09-30 7:08:00,0,0,d852831d8k_htm.xml,2,1494877
0001493152-24-038688,1780312,"AST SPACEMOBILE, INC.",4899,US,TX,AUSTIN,78730,6500 RIVERPLACE BOULEVARD,,9179694834,US,TX,AUSTIN,78730,6500 RIVERPLACE BOULEVARD,,US,DE,0,NEW PROVIDENCE ACQUISITION CORP.,20190620,4-NON,0,1231,8-K,20240930,,,20240930,2024-09-30 7:30:00,0,0,form8-k_htm.xml,1,
0001524931-24-000098,1524931,"CHUY'S HOLDINGS, INC.",5812,US,TX,AUSTIN,78704,1623 TOOMEY ROAD,,512-473-2783,US,TX,AUSTIN,78704,1623 TOOMEY ROAD,,US,DE,205717694,,,1-LAF,0,1231,8-K,20240930,,,20240930,2024-09-30 16:15:00,0,0,chuy-20240930_htm.xml,1,